{
"type": "FeatureCollection",
"name": "southampton_restaurants",
"crs": { "type": "name", "properties": { "name": "urn:ogc:def:crs:OGC:1.3:CRS84" } },
"features": [
{ "type": "Feature", "properties": { "cuisine": "Indian" }, "geometry": { "type": "Point", "coordinates": [ -1.4050434, 50.9070432 ] } },
{ "type": "Feature", "properties": { "cuisine": "Other" }, "geometry": { "type": "Point", "coordinates": [ -1.3966318, 50.9060152 ] } },
{ "type": "Feature", "properties": { "cuisine": "Other" }, "geometry": { "type": "Point", "coordinates": [ -1.3995655, 50.9017282 ] } },
{ "type": "Feature", "properties": { "cuisine": "Other" }, "geometry": { "type": "Point", "coordinates": [ -1.4223777, 50.9135591 ] } },
{ "type": "Feature", "properties": { "cuisine": "Other" }, "geometry": { "type": "Point", "coordinates": [ -1.4342812, 50.9329881 ] } },
{ "type": "Feature", "properties": { "cuisine": "British" }, "geometry": { "type": "Point", "coordinates": [ -1.3558979, 50.93597 ] } },
{ "type": "Feature", "properties": { "cuisine": "Japanese" }, "geometry": { "type": "Point", "coordinates": [ -1.4075754, 50.903579 ] } },
{ "type": "Feature", "properties": { "cuisine": "Korean" }, "geometry": { "type": "Point", "coordinates": [ -1.4077324, 50.9033624 ] } },
{ "type": "Feature", "properties": { "cuisine": "Italian" }, "geometry": { "type": "Point", "coordinates": [ -1.4065592, 50.9035567 ] } },
{ "type": "Feature", "properties": { "cuisine": "Chinese" }, "geometry": { "type": "Point", "coordinates": [ -1.4444556, 50.9334087 ] } },
{ "type": "Feature", "properties": { "cuisine": "Other" }, "geometry": { "type": "Point", "coordinates": [ -1.4069091, 50.9038671 ] } },
{ "type": "Feature", "properties": { "cuisine": "Italian" }, "geometry": { "type": "Point", "coordinates": [ -1.4067992, 50.9038234 ] } },
{ "type": "Feature", "properties": { "cuisine": "Hybrid" }, "geometry": { "type": "Point", "coordinates": [ -1.4070077, 50.9039029 ] } },
{ "type": "Feature", "properties": { "cuisine": "Asian" }, "geometry": { "type": "Point", "coordinates": [ -1.4078742, 50.903596 ] } },
{ "type": "Feature", "properties": { "cuisine": "Middle Eastern" }, "geometry": { "type": "Point", "coordinates": [ -1.4039789, 50.899188 ] } },
{ "type": "Feature", "properties": { "cuisine": "American" }, "geometry": { "type": "Point", "coordinates": [ -1.4066658, 50.9022837 ] } },
{ "type": "Feature", "properties": { "cuisine": "Indian" }, "geometry": { "type": "Point", "coordinates": [ -1.4066664, 50.9021741 ] } },
{ "type": "Feature", "properties": { "cuisine": "Italian" }, "geometry": { "type": "Point", "coordinates": [ -1.4068464, 50.9021307 ] } },
{ "type": "Feature", "properties": { "cuisine": "Thai" }, "geometry": { "type": "Point", "coordinates": [ -1.4069267, 50.9019886 ] } },
{ "type": "Feature", "properties": { "cuisine": "Italian" }, "geometry": { "type": "Point", "coordinates": [ -1.4068195, 50.9025383 ] } },
{ "type": "Feature", "properties": { "cuisine": "Mexican" }, "geometry": { "type": "Point", "coordinates": [ -1.4066282, 50.9025276 ] } },
{ "type": "Feature", "properties": { "cuisine": "Other" }, "geometry": { "type": "Point", "coordinates": [ -1.4068393, 50.9022738 ] } },
{ "type": "Feature", "properties": { "cuisine": "Mediterranean" }, "geometry": { "type": "Point", "coordinates": [ -1.4066613, 50.9024192 ] } },
{ "type": "Feature", "properties": { "cuisine": "Italian" }, "geometry": { "type": "Point", "coordinates": [ -1.4065201, 50.9026729 ] } },
{ "type": "Feature", "properties": { "cuisine": "British" }, "geometry": { "type": "Point", "coordinates": [ -1.4063402, 50.902828 ] } },
{ "type": "Feature", "properties": { "cuisine": "Hybrid" }, "geometry": { "type": "Point", "coordinates": [ -1.4074194, 50.9021532 ] } },
{ "type": "Feature", "properties": { "cuisine": "Other" }, "geometry": { "type": "Point", "coordinates": [ -1.4072344, 50.9024628 ] } },
{ "type": "Feature", "properties": { "cuisine": "Mexican" }, "geometry": { "type": "Point", "coordinates": [ -1.4073899, 50.9023816 ] } },
{ "type": "Feature", "properties": { "cuisine": "American" }, "geometry": { "type": "Point", "coordinates": [ -1.4074141, 50.9022784 ] } },
{ "type": "Feature", "properties": { "cuisine": "Other" }, "geometry": { "type": "Point", "coordinates": [ -1.4070913, 50.8971093 ] } },
{ "type": "Feature", "properties": { "cuisine": "Indian" }, "geometry": { "type": "Point", "coordinates": [ -1.4299907, 50.9406861 ] } },
{ "type": "Feature", "properties": { "cuisine": "Middle Eastern" }, "geometry": { "type": "Point", "coordinates": [ -1.4037848, 50.9009917 ] } },
{ "type": "Feature", "properties": { "cuisine": "Thai" }, "geometry": { "type": "Point", "coordinates": [ -1.3943755, 50.8971074 ] } },
{ "type": "Feature", "properties": { "cuisine": "Hybrid" }, "geometry": { "type": "Point", "coordinates": [ -1.3944407, 50.8971075 ] } },
{ "type": "Feature", "properties": { "cuisine": "Hybrid" }, "geometry": { "type": "Point", "coordinates": [ -1.4059731, 50.906369 ] } },
{ "type": "Feature", "properties": { "cuisine": "American" }, "geometry": { "type": "Point", "coordinates": [ -1.4052541, 50.9054891 ] } },
{ "type": "Feature", "properties": { "cuisine": "Chinese" }, "geometry": { "type": "Point", "coordinates": [ -1.4051628, 50.9054575 ] } },
{ "type": "Feature", "properties": { "cuisine": "Cafe" }, "geometry": { "type": "Point", "coordinates": [ -1.4052555, 50.9057187 ] } },
{ "type": "Feature", "properties": { "cuisine": "Other" }, "geometry": { "type": "Point", "coordinates": [ -1.3969186, 50.9059886 ] } },
{ "type": "Feature", "properties": { "cuisine": "Other" }, "geometry": { "type": "Point", "coordinates": [ -1.3807735, 50.9103262 ] } },
{ "type": "Feature", "properties": { "cuisine": "Cafe" }, "geometry": { "type": "Point", "coordinates": [ -1.4041854, 50.9003898 ] } },
{ "type": "Feature", "properties": { "cuisine": "Other" }, "geometry": { "type": "Point", "coordinates": [ -1.4082751, 50.9017743 ] } },
{ "type": "Feature", "properties": { "cuisine": "Other" }, "geometry": { "type": "Point", "coordinates": [ -1.4132593, 50.947413 ] } },
{ "type": "Feature", "properties": { "cuisine": "Other" }, "geometry": { "type": "Point", "coordinates": [ -1.4036019, 50.8999291 ] } },
{ "type": "Feature", "properties": { "cuisine": "Italian" }, "geometry": { "type": "Point", "coordinates": [ -1.4042009, 50.9009282 ] } },
{ "type": "Feature", "properties": { "cuisine": "Other" }, "geometry": { "type": "Point", "coordinates": [ -1.404886, 50.9076944 ] } },
{ "type": "Feature", "properties": { "cuisine": "Chinese" }, "geometry": { "type": "Point", "coordinates": [ -1.397519, 50.9369168 ] } },
{ "type": "Feature", "properties": { "cuisine": "Indian" }, "geometry": { "type": "Point", "coordinates": [ -1.3577125, 50.9146083 ] } },
{ "type": "Feature", "properties": { "cuisine": "Other" }, "geometry": { "type": "Point", "coordinates": [ -1.4041575, 50.8983792 ] } },
{ "type": "Feature", "properties": { "cuisine": "Italian" }, "geometry": { "type": "Point", "coordinates": [ -1.4073668, 50.9032925 ] } },
{ "type": "Feature", "properties": { "cuisine": "Other" }, "geometry": { "type": "Point", "coordinates": [ -1.4050413, 50.9054438 ] } },
{ "type": "Feature", "properties": { "cuisine": "Other" }, "geometry": { "type": "Point", "coordinates": [ -1.4059374, 50.9057987 ] } },
{ "type": "Feature", "properties": { "cuisine": "Chinese" }, "geometry": { "type": "Point", "coordinates": [ -1.4045403, 50.9032822 ] } },
{ "type": "Feature", "properties": { "cuisine": "Other" }, "geometry": { "type": "Point", "coordinates": [ -1.3915784, 50.8966181 ] } },
{ "type": "Feature", "properties": { "cuisine": "Italian" }, "geometry": { "type": "Point", "coordinates": [ -1.391502, 50.8966637 ] } },
{ "type": "Feature", "properties": { "cuisine": "Other" }, "geometry": { "type": "Point", "coordinates": [ -1.392056, 50.8964577 ] } },
{ "type": "Feature", "properties": { "cuisine": "Other" }, "geometry": { "type": "Point", "coordinates": [ -1.3927464, 50.8954058 ] } },
{ "type": "Feature", "properties": { "cuisine": "Indian" }, "geometry": { "type": "Point", "coordinates": [ -1.3431945, 50.9225873 ] } },
{ "type": "Feature", "properties": { "cuisine": "Mediterranean" }, "geometry": { "type": "Point", "coordinates": [ -1.404555, 50.9001212 ] } },
{ "type": "Feature", "properties": { "cuisine": "Japanese" }, "geometry": { "type": "Point", "coordinates": [ -1.4044637, 50.9022432 ] } },
{ "type": "Feature", "properties": { "cuisine": "Italian" }, "geometry": { "type": "Point", "coordinates": [ -1.4019179, 50.9028424 ] } },
{ "type": "Feature", "properties": { "cuisine": "Mediterranean" }, "geometry": { "type": "Point", "coordinates": [ -1.3945497, 50.923692 ] } },
{ "type": "Feature", "properties": { "cuisine": "Chinese" }, "geometry": { "type": "Point", "coordinates": [ -1.380351, 50.938394 ] } },
{ "type": "Feature", "properties": { "cuisine": "Japanese" }, "geometry": { "type": "Point", "coordinates": [ -1.4060519, 50.9120549 ] } },
{ "type": "Feature", "properties": { "cuisine": "Indian" }, "geometry": { "type": "Point", "coordinates": [ -1.3637402, 50.9334243 ] } },
{ "type": "Feature", "properties": { "cuisine": "Indian" }, "geometry": { "type": "Point", "coordinates": [ -1.4017229, 50.8981977 ] } },
{ "type": "Feature", "properties": { "cuisine": "Japanese" }, "geometry": { "type": "Point", "coordinates": [ -1.4017448, 50.9028247 ] } },
{ "type": "Feature", "properties": { "cuisine": "Chinese" }, "geometry": { "type": "Point", "coordinates": [ -1.4044811, 50.9022887 ] } },
{ "type": "Feature", "properties": { "cuisine": "Indian" }, "geometry": { "type": "Point", "coordinates": [ -1.4011334, 50.9016798 ] } },
{ "type": "Feature", "properties": { "cuisine": "Other" }, "geometry": { "type": "Point", "coordinates": [ -1.4016022, 50.9018609 ] } },
{ "type": "Feature", "properties": { "cuisine": "Steakhouse" }, "geometry": { "type": "Point", "coordinates": [ -1.4015579, 50.9028057 ] } },
{ "type": "Feature", "properties": { "cuisine": "Chinese" }, "geometry": { "type": "Point", "coordinates": [ -1.4042393, 50.9014932 ] } },
{ "type": "Feature", "properties": { "cuisine": "Italian" }, "geometry": { "type": "Point", "coordinates": [ -1.4050383, 50.9067749 ] } },
{ "type": "Feature", "properties": { "cuisine": "Indian" }, "geometry": { "type": "Point", "coordinates": [ -1.407041087197736, 50.896970266698645 ] } },
{ "type": "Feature", "properties": { "cuisine": "British" }, "geometry": { "type": "Point", "coordinates": [ -1.430939311504991, 50.920650848951453 ] } },
{ "type": "Feature", "properties": { "cuisine": "Chinese" }, "geometry": { "type": "Point", "coordinates": [ -1.391490369041135, 50.926448030814598 ] } },
{ "type": "Feature", "properties": { "cuisine": "American" }, "geometry": { "type": "Point", "coordinates": [ -1.391973621520637, 50.926089293569078 ] } },
{ "type": "Feature", "properties": { "cuisine": "Chinese" }, "geometry": { "type": "Point", "coordinates": [ -1.392242773863018, 50.92591514223821 ] } },
{ "type": "Feature", "properties": { "cuisine": "Indian" }, "geometry": { "type": "Point", "coordinates": [ -1.43470458226659, 50.922978388424625 ] } },
{ "type": "Feature", "properties": { "cuisine": "Chinese" }, "geometry": { "type": "Point", "coordinates": [ -1.39192562071539, 50.938240335260531 ] } },
{ "type": "Feature", "properties": { "cuisine": "Chinese" }, "geometry": { "type": "Point", "coordinates": [ -1.392924753647729, 50.93819224525226 ] } },
{ "type": "Feature", "properties": { "cuisine": "Middle Eastern" }, "geometry": { "type": "Point", "coordinates": [ -1.390757864987127, 50.938355867597792 ] } },
{ "type": "Feature", "properties": { "cuisine": "Asian" }, "geometry": { "type": "Point", "coordinates": [ -1.392786472553026, 50.938179951602464 ] } },
{ "type": "Feature", "properties": { "cuisine": "Chinese" }, "geometry": { "type": "Point", "coordinates": [ -1.379978760862517, 50.938240526948938 ] } },
{ "type": "Feature", "properties": { "cuisine": "Hybrid" }, "geometry": { "type": "Point", "coordinates": [ -1.392893365857611, 50.925356479167192 ] } },
{ "type": "Feature", "properties": { "cuisine": "Asian" }, "geometry": { "type": "Point", "coordinates": [ -1.392968922245935, 50.925289720608284 ] } },
{ "type": "Feature", "properties": { "cuisine": "Indian" }, "geometry": { "type": "Point", "coordinates": [ -1.393009614415345, 50.925252698911486 ] } },
{ "type": "Feature", "properties": { "cuisine": "British" }, "geometry": { "type": "Point", "coordinates": [ -1.391078411054101, 50.926553859211261 ] } },
{ "type": "Feature", "properties": { "cuisine": "Chinese" }, "geometry": { "type": "Point", "coordinates": [ -1.395228831698661, 50.918462384215928 ] } },
{ "type": "Feature", "properties": { "cuisine": "Indian" }, "geometry": { "type": "Point", "coordinates": [ -1.395736363683095, 50.916675362005051 ] } },
{ "type": "Feature", "properties": { "cuisine": "Other" }, "geometry": { "type": "Point", "coordinates": [ -1.39217236332251, 50.926484697869157 ] } },
{ "type": "Feature", "properties": { "cuisine": "Indian" }, "geometry": { "type": "Point", "coordinates": [ -1.39304438869941, 50.92581334701395 ] } },
{ "type": "Feature", "properties": { "cuisine": "British" }, "geometry": { "type": "Point", "coordinates": [ -1.399287774418182, 50.919107872310875 ] } },
{ "type": "Feature", "properties": { "cuisine": "Thai" }, "geometry": { "type": "Point", "coordinates": [ -1.395649790262447, 50.92064382892007 ] } },
{ "type": "Feature", "properties": { "cuisine": "American" }, "geometry": { "type": "Point", "coordinates": [ -1.4133334548529, 50.904999018797618 ] } },
{ "type": "Feature", "properties": { "cuisine": "Asian" }, "geometry": { "type": "Point", "coordinates": [ -1.40443223587656, 50.908709918900463 ] } },
{ "type": "Feature", "properties": { "cuisine": "Indian" }, "geometry": { "type": "Point", "coordinates": [ -1.404521790461074, 50.912504177389252 ] } },
{ "type": "Feature", "properties": { "cuisine": "Indian" }, "geometry": { "type": "Point", "coordinates": [ -1.390632078480762, 50.927153768962768 ] } },
{ "type": "Feature", "properties": { "cuisine": "American" }, "geometry": { "type": "Point", "coordinates": [ -1.394782582875433, 50.923393210155531 ] } },
{ "type": "Feature", "properties": { "cuisine": "British" }, "geometry": { "type": "Point", "coordinates": [ -1.405642233892578, 50.911604421005386 ] } },
{ "type": "Feature", "properties": { "cuisine": "Indian" }, "geometry": { "type": "Point", "coordinates": [ -1.405679837310216, 50.911556861303005 ] } },
{ "type": "Feature", "properties": { "cuisine": "Fast Food" }, "geometry": { "type": "Point", "coordinates": [ -1.405661837636474, 50.911642933695362 ] } },
{ "type": "Feature", "properties": { "cuisine": "Asian" }, "geometry": { "type": "Point", "coordinates": [ -1.405627823961019, 50.911437378491861 ] } },
{ "type": "Feature", "properties": { "cuisine": "Cafe" }, "geometry": { "type": "Point", "coordinates": [ -1.405676995521931, 50.9115125933955 ] } },
{ "type": "Feature", "properties": { "cuisine": "Italian" }, "geometry": { "type": "Point", "coordinates": [ -1.405545439134106, 50.911405618151903 ] } },
{ "type": "Feature", "properties": { "cuisine": "Chinese" }, "geometry": { "type": "Point", "coordinates": [ -1.405830395015408, 50.911825367439178 ] } },
{ "type": "Feature", "properties": { "cuisine": "Middle Eastern" }, "geometry": { "type": "Point", "coordinates": [ -1.405792839301241, 50.911876007538162 ] } },
{ "type": "Feature", "properties": { "cuisine": "Other" }, "geometry": { "type": "Point", "coordinates": [ -1.405690491896826, 50.911701947001404 ] } },
{ "type": "Feature", "properties": { "cuisine": "Middle Eastern" }, "geometry": { "type": "Point", "coordinates": [ -1.405888203898316, 50.911981871352403 ] } },
{ "type": "Feature", "properties": { "cuisine": "Other" }, "geometry": { "type": "Point", "coordinates": [ -1.406006769847092, 50.912132588395792 ] } },
{ "type": "Feature", "properties": { "cuisine": "Indian" }, "geometry": { "type": "Point", "coordinates": [ -1.405918033382572, 50.912018247408973 ] } },
{ "type": "Feature", "properties": { "cuisine": "Other" }, "geometry": { "type": "Point", "coordinates": [ -1.40562144696592, 50.91283407426657 ] } },
{ "type": "Feature", "properties": { "cuisine": "Other" }, "geometry": { "type": "Point", "coordinates": [ -1.391597444917735, 50.927629797700462 ] } },
{ "type": "Feature", "properties": { "cuisine": "Other" }, "geometry": { "type": "Point", "coordinates": [ -1.398619493888325, 50.89801074608112 ] } },
{ "type": "Feature", "properties": { "cuisine": "Other" }, "geometry": { "type": "Point", "coordinates": [ -1.398787359953846, 50.897841303080881 ] } },
{ "type": "Feature", "properties": { "cuisine": "Other" }, "geometry": { "type": "Point", "coordinates": [ -1.397230625646169, 50.897789187413814 ] } },
{ "type": "Feature", "properties": { "cuisine": "Italian" }, "geometry": { "type": "Point", "coordinates": [ -1.398096367477132, 50.897960013375496 ] } },
{ "type": "Feature", "properties": { "cuisine": "Mediterranean" }, "geometry": { "type": "Point", "coordinates": [ -1.397955404360561, 50.897909336054042 ] } },
{ "type": "Feature", "properties": { "cuisine": "Steakhouse" }, "geometry": { "type": "Point", "coordinates": [ -1.397284554788873, 50.89809415917842 ] } },
{ "type": "Feature", "properties": { "cuisine": "Other" }, "geometry": { "type": "Point", "coordinates": [ -1.397932935995011, 50.89820823696239 ] } },
{ "type": "Feature", "properties": { "cuisine": "Indian" }, "geometry": { "type": "Point", "coordinates": [ -1.403656944826004, 50.898897313707074 ] } },
{ "type": "Feature", "properties": { "cuisine": "Steakhouse" }, "geometry": { "type": "Point", "coordinates": [ -1.403430275638165, 50.899269881351593 ] } },
{ "type": "Feature", "properties": { "cuisine": "Mediterranean" }, "geometry": { "type": "Point", "coordinates": [ -1.404765132604806, 50.896773246531239 ] } },
{ "type": "Feature", "properties": { "cuisine": "Italian" }, "geometry": { "type": "Point", "coordinates": [ -1.405051230259144, 50.896863741108433 ] } },
{ "type": "Feature", "properties": { "cuisine": "Mediterranean" }, "geometry": { "type": "Point", "coordinates": [ -1.404615326385413, 50.899403836868274 ] } },
{ "type": "Feature", "properties": { "cuisine": "Other" }, "geometry": { "type": "Point", "coordinates": [ -1.404150768900938, 50.899752529250605 ] } },
{ "type": "Feature", "properties": { "cuisine": "Other" }, "geometry": { "type": "Point", "coordinates": [ -1.404159482225675, 50.899836940495568 ] } },
{ "type": "Feature", "properties": { "cuisine": "Indian" }, "geometry": { "type": "Point", "coordinates": [ -1.404194252491031, 50.899696084478478 ] } },
{ "type": "Feature", "properties": { "cuisine": "Other" }, "geometry": { "type": "Point", "coordinates": [ -1.403557319994883, 50.900231092572923 ] } },
{ "type": "Feature", "properties": { "cuisine": "Middle Eastern" }, "geometry": { "type": "Point", "coordinates": [ -1.432115828732412, 50.920908548944816 ] } },
{ "type": "Feature", "properties": { "cuisine": "Mediterranean" }, "geometry": { "type": "Point", "coordinates": [ -1.40156128284105, 50.90145704822541 ] } },
{ "type": "Feature", "properties": { "cuisine": "Other" }, "geometry": { "type": "Point", "coordinates": [ -1.401139674240439, 50.90155265209885 ] } },
{ "type": "Feature", "properties": { "cuisine": "Hybrid" }, "geometry": { "type": "Point", "coordinates": [ -1.393931275302116, 50.897120089832448 ] } },
{ "type": "Feature", "properties": { "cuisine": "Other" }, "geometry": { "type": "Point", "coordinates": [ -1.396528875274216, 50.90720850181679 ] } },
{ "type": "Feature", "properties": { "cuisine": "Indian" }, "geometry": { "type": "Point", "coordinates": [ -1.397296943586774, 50.914973170250541 ] } },
{ "type": "Feature", "properties": { "cuisine": "Indian" }, "geometry": { "type": "Point", "coordinates": [ -1.39644421056325, 50.91575954757338 ] } },
{ "type": "Feature", "properties": { "cuisine": "Mexican" }, "geometry": { "type": "Point", "coordinates": [ -1.403785165102498, 50.91160582675608 ] } },
{ "type": "Feature", "properties": { "cuisine": "Other" }, "geometry": { "type": "Point", "coordinates": [ -1.405008438754519, 50.912744328158809 ] } },
{ "type": "Feature", "properties": { "cuisine": "Italian" }, "geometry": { "type": "Point", "coordinates": [ -1.40948796024908, 50.909071766214467 ] } },
{ "type": "Feature", "properties": { "cuisine": "Korean" }, "geometry": { "type": "Point", "coordinates": [ -1.409556958777361, 50.909070212220655 ] } },
{ "type": "Feature", "properties": { "cuisine": "Japanese" }, "geometry": { "type": "Point", "coordinates": [ -1.409171340482994, 50.909092795814686 ] } },
{ "type": "Feature", "properties": { "cuisine": "Mediterranean" }, "geometry": { "type": "Point", "coordinates": [ -1.409077691076547, 50.909040116694435 ] } },
{ "type": "Feature", "properties": { "cuisine": "Italian" }, "geometry": { "type": "Point", "coordinates": [ -1.409402296106673, 50.909071404049229 ] } },
{ "type": "Feature", "properties": { "cuisine": "Italian" }, "geometry": { "type": "Point", "coordinates": [ -1.406647782970198, 50.912442793041862 ] } },
{ "type": "Feature", "properties": { "cuisine": "Indian" }, "geometry": { "type": "Point", "coordinates": [ -1.336160979653242, 50.914434838012092 ] } },
{ "type": "Feature", "properties": { "cuisine": "Chinese" }, "geometry": { "type": "Point", "coordinates": [ -1.404153880099432, 50.900040572312513 ] } },
{ "type": "Feature", "properties": { "cuisine": "Other" }, "geometry": { "type": "Point", "coordinates": [ -1.392041675071996, 50.897340367413889 ] } },
{ "type": "Feature", "properties": { "cuisine": "Other" }, "geometry": { "type": "Point", "coordinates": [ -1.397155509133762, 50.934285842332528 ] } },
{ "type": "Feature", "properties": { "cuisine": "Other" }, "geometry": { "type": "Point", "coordinates": [ -1.387107070893726, 50.944103154118274 ] } },
{ "type": "Feature", "properties": { "cuisine": "Middle Eastern" }, "geometry": { "type": "Point", "coordinates": [ -1.427408257347734, 50.917942061793489 ] } },
{ "type": "Feature", "properties": { "cuisine": "Other" }, "geometry": { "type": "Point", "coordinates": [ -1.430629518474992, 50.920372450304015 ] } },
{ "type": "Feature", "properties": { "cuisine": "Chinese" }, "geometry": { "type": "Point", "coordinates": [ -1.430819515351945, 50.919780972803402 ] } },
{ "type": "Feature", "properties": { "cuisine": "Thai" }, "geometry": { "type": "Point", "coordinates": [ -1.426375759772064, 50.916538140092598 ] } },
{ "type": "Feature", "properties": { "cuisine": "Indian" }, "geometry": { "type": "Point", "coordinates": [ -1.426624928486278, 50.916681189250269 ] } },
{ "type": "Feature", "properties": { "cuisine": "Indian" }, "geometry": { "type": "Point", "coordinates": [ -1.404430953576993, 50.918870634599024 ] } },
{ "type": "Feature", "properties": { "cuisine": "Indian" }, "geometry": { "type": "Point", "coordinates": [ -1.418549858186041, 50.934287807970357 ] } },
{ "type": "Feature", "properties": { "cuisine": "Mediterranean" }, "geometry": { "type": "Point", "coordinates": [ -1.395702979392343, 50.920840049966742 ] } },
{ "type": "Feature", "properties": { "cuisine": "Asian" }, "geometry": { "type": "Point", "coordinates": [ -1.392529302971649, 50.938210176805576 ] } },
{ "type": "Feature", "properties": { "cuisine": "Indian" }, "geometry": { "type": "Point", "coordinates": [ -1.421408292260302, 50.920603382751231 ] } },
{ "type": "Feature", "properties": { "cuisine": "Other" }, "geometry": { "type": "Point", "coordinates": [ -1.397434302009202, 50.93540251788847 ] } },
{ "type": "Feature", "properties": { "cuisine": "Other" }, "geometry": { "type": "Point", "coordinates": [ -1.397794066006707, 50.935217455832721 ] } },
{ "type": "Feature", "properties": { "cuisine": "Middle Eastern" }, "geometry": { "type": "Point", "coordinates": [ -1.380360380153761, 50.938600583241083 ] } },
{ "type": "Feature", "properties": { "cuisine": "Indian" }, "geometry": { "type": "Point", "coordinates": [ -1.421755077473325, 50.920920622728396 ] } },
{ "type": "Feature", "properties": { "cuisine": "Asian" }, "geometry": { "type": "Point", "coordinates": [ -1.404742328747264, 50.906383328206644 ] } },
{ "type": "Feature", "properties": { "cuisine": "Other" }, "geometry": { "type": "Point", "coordinates": [ -1.40473988788916, 50.906334333183949 ] } },
{ "type": "Feature", "properties": { "cuisine": "Other" }, "geometry": { "type": "Point", "coordinates": [ -1.404080976311219, 50.905610064786096 ] } },
{ "type": "Feature", "properties": { "cuisine": "Other" }, "geometry": { "type": "Point", "coordinates": [ -1.39695066945379, 50.897501704245535 ] } },
{ "type": "Feature", "properties": { "cuisine": "Other" }, "geometry": { "type": "Point", "coordinates": [ -1.404569966635592, 50.911497833453673 ] } },
{ "type": "Feature", "properties": { "cuisine": "Thai" }, "geometry": { "type": "Point", "coordinates": [ -1.404436848997504, 50.908768767210162 ] } },
{ "type": "Feature", "properties": { "cuisine": "Thai" }, "geometry": { "type": "Point", "coordinates": [ -1.403647422133801, 50.905040503581681 ] } },
{ "type": "Feature", "properties": { "cuisine": "Other" }, "geometry": { "type": "Point", "coordinates": [ -1.420644444526132, 50.91238593283542 ] } },
{ "type": "Feature", "properties": { "cuisine": "Chinese" }, "geometry": { "type": "Point", "coordinates": [ -1.404782071683389, 50.907131742238001 ] } },
{ "type": "Feature", "properties": { "cuisine": "Other" }, "geometry": { "type": "Point", "coordinates": [ -1.395288259971257, 50.917989630918001 ] } },
{ "type": "Feature", "properties": { "cuisine": "Other" }, "geometry": { "type": "Point", "coordinates": [ -1.390858302599086, 50.896928942338349 ] } },
{ "type": "Feature", "properties": { "cuisine": "Other" }, "geometry": { "type": "Point", "coordinates": [ -1.404319199729611, 50.908409579369071 ] } },
{ "type": "Feature", "properties": { "cuisine": "Hybrid" }, "geometry": { "type": "Point", "coordinates": [ -1.404161610574129, 50.90824740909818 ] } },
{ "type": "Feature", "properties": { "cuisine": "Other" }, "geometry": { "type": "Point", "coordinates": [ -1.404151264282359, 50.908178825953463 ] } },
{ "type": "Feature", "properties": { "cuisine": "Fine Dining" }, "geometry": { "type": "Point", "coordinates": [ -1.397376508775708, 50.935254443841224 ] } },
{ "type": "Feature", "properties": { "cuisine": "Other" }, "geometry": { "type": "Point", "coordinates": [ -1.404102339545223, 50.908099982992958 ] } },
{ "type": "Feature", "properties": { "cuisine": "Asian" }, "geometry": { "type": "Point", "coordinates": [ -1.41197084200598, 50.908599583755532 ] } },
{ "type": "Feature", "properties": { "cuisine": "Italian" }, "geometry": { "type": "Point", "coordinates": [ -1.411661596572735, 50.908596141849927 ] } },
{ "type": "Feature", "properties": { "cuisine": "Indian" }, "geometry": { "type": "Point", "coordinates": [ -1.375482627145584, 50.924393012053152 ] } },
{ "type": "Feature", "properties": { "cuisine": "Other" }, "geometry": { "type": "Point", "coordinates": [ -1.375478794685414, 50.925090674275189 ] } },
{ "type": "Feature", "properties": { "cuisine": "Indian" }, "geometry": { "type": "Point", "coordinates": [ -1.37731495664767, 50.897799441138808 ] } },
{ "type": "Feature", "properties": { "cuisine": "Chinese" }, "geometry": { "type": "Point", "coordinates": [ -1.379517951469596, 50.897680124363525 ] } },
{ "type": "Feature", "properties": { "cuisine": "Other" }, "geometry": { "type": "Point", "coordinates": [ -1.379567761441659, 50.897091034575752 ] } },
{ "type": "Feature", "properties": { "cuisine": "Other" }, "geometry": { "type": "Point", "coordinates": [ -1.379786255870052, 50.896830502214641 ] } },
{ "type": "Feature", "properties": { "cuisine": "Indian" }, "geometry": { "type": "Point", "coordinates": [ -1.379922905608566, 50.896512527366895 ] } },
{ "type": "Feature", "properties": { "cuisine": "Other" }, "geometry": { "type": "Point", "coordinates": [ -1.380197607412073, 50.896924821066847 ] } },
{ "type": "Feature", "properties": { "cuisine": "Other" }, "geometry": { "type": "Point", "coordinates": [ -1.391294510610622, 50.927024531180969 ] } },
{ "type": "Feature", "properties": { "cuisine": "American" }, "geometry": { "type": "Point", "coordinates": [ -1.393265208376003, 50.918440982330168 ] } },
{ "type": "Feature", "properties": { "cuisine": "Thai" }, "geometry": { "type": "Point", "coordinates": [ -1.378242146285497, 50.915760167717295 ] } }
]
}
