{
"type": "FeatureCollection",
"name": "lsoa",
"crs": { "type": "name", "properties": { "name": "urn:ogc:def:crs:OGC:1.3:CRS84" } },
"features": [
{ "type": "Feature", "properties": { "LSOA21CD": "E01017136", "LSOA21NM": "Southampton 023A" }, "geometry": { "type": "Polygon", "coordinates": [ [ [ -1.40647724866216, 50.912915550774102 ], [ -1.40487321044096, 50.910499428376703 ], [ -1.40836667671215, 50.908625750754801 ], [ -1.41133801821128, 50.911015273233197 ], [ -1.41110953165704, 50.913521278620202 ], [ -1.40647724866216, 50.912915550774102 ] ] ] } },
{ "type": "Feature", "properties": { "LSOA21CD": "E01017137", "LSOA21NM": "Southampton 023B" }, "geometry": { "type": "Polygon", "coordinates": [ [ [ -1.4063257914813, 50.913992688279301 ], [ -1.40647724866216, 50.912915550774102 ], [ -1.41110953165704, 50.913521278620202 ], [ -1.41133801821128, 50.911015273233197 ], [ -1.41388496957029, 50.912173130607997 ], [ -1.41332319486695, 50.914632036549499 ], [ -1.4063257914813, 50.913992688279301 ] ] ] } },
{ "type": "Feature", "properties": { "LSOA21CD": "E01017138", "LSOA21NM": "Southampton 023C" }, "geometry": { "type": "Polygon", "coordinates": [ [ [ -1.4063257914813, 50.913992688279301 ], [ -1.41332319486695, 50.914632036549499 ], [ -1.41388496957029, 50.912173130607997 ], [ -1.41534680051632, 50.909881208560499 ], [ -1.41566061900952, 50.911382597102701 ], [ -1.41541430186129, 50.914865860102203 ], [ -1.40647947700979, 50.916637790251599 ], [ -1.4063257914813, 50.913992688279301 ] ] ] } },
{ "type": "Feature", "properties": { "LSOA21CD": "E01017139", "LSOA21NM": "Southampton 033B" }, "geometry": { "type": "Polygon", "coordinates": [ [ [ -1.39821114979024, 50.908029863710098 ], [ -1.3942204084521, 50.903922878157204 ], [ -1.39889146307462, 50.900453688115597 ], [ -1.40080248317021, 50.900521814562097 ], [ -1.40453405920194, 50.906906639836599 ], [ -1.40118042639347, 50.9100966924454 ], [ -1.39821114979024, 50.908029863710098 ] ] ] } },
{ "type": "Feature", "properties": { "LSOA21CD": "E01017144", "LSOA21NM": "Southampton 001A" }, "geometry": { "type": "Polygon", "coordinates": [ [ [ -1.39134502163935, 50.942424602809403 ], [ -1.38892077225642, 50.940150133099301 ], [ -1.39824731591725, 50.941081986095703 ], [ -1.39869473716397, 50.938286578556202 ], [ -1.40276476063365, 50.939492008820501 ], [ -1.40083594499269, 50.941911700808603 ], [ -1.39749009542645, 50.9446031748775 ], [ -1.39134502163935, 50.942424602809403 ] ] ] } },
{ "type": "Feature", "properties": { "LSOA21CD": "E01017145", "LSOA21NM": "Southampton 001B" }, "geometry": { "type": "Polygon", "coordinates": [ [ [ -1.39082611550871, 50.946519018376399 ], [ -1.38944504680122, 50.943876222874103 ], [ -1.39134502163935, 50.942424602809403 ], [ -1.39749009542645, 50.9446031748775 ], [ -1.4012946256355, 50.9455873038766 ], [ -1.39840863821668, 50.9486907776555 ], [ -1.40471812849242, 50.948258187081002 ], [ -1.40925854639891, 50.951690383970003 ], [ -1.40635616424186, 50.956119556194302 ], [ -1.40257429836075, 50.955285520148102 ], [ -1.40160425817016, 50.9505540465194 ], [ -1.39286169681607, 50.9493821938784 ], [ -1.39082611550871, 50.946519018376399 ] ] ] } },
{ "type": "Feature", "properties": { "LSOA21CD": "E01017146", "LSOA21NM": "Southampton 001C" }, "geometry": { "type": "Polygon", "coordinates": [ [ [ -1.41326705969399, 50.949845389090001 ], [ -1.40083594499269, 50.941911700808603 ], [ -1.40276476063365, 50.939492008820501 ], [ -1.39869473716397, 50.938286578556202 ], [ -1.39914198358597, 50.93781058962 ], [ -1.40240681121511, 50.936979531309802 ], [ -1.40724530907558, 50.9420992287628 ], [ -1.41992627478636, 50.943789624570897 ], [ -1.42406189845504, 50.943450475640901 ], [ -1.42404828707994, 50.9435281130352 ], [ -1.4237007883686, 50.947249903391402 ], [ -1.42104029409338, 50.951705962075501 ], [ -1.41326705969399, 50.949845389090001 ] ] ] } },
{ "type": "Feature", "properties": { "LSOA21CD": "E01017147", "LSOA21NM": "Southampton 006A" }, "geometry": { "type": "Polygon", "coordinates": [ [ [ -1.41199764306267, 50.9346928923555 ], [ -1.41914248722433, 50.934169260859001 ], [ -1.42174430275274, 50.936650561758697 ], [ -1.41970070134443, 50.939972179721302 ], [ -1.41186261770394, 50.9380779334601 ], [ -1.41199764306267, 50.9346928923555 ] ] ] } },
{ "type": "Feature", "properties": { "LSOA21CD": "E01017148", "LSOA21NM": "Southampton 001D" }, "geometry": { "type": "Polygon", "coordinates": [ [ [ -1.39749009542645, 50.9446031748775 ], [ -1.40083594499269, 50.941911700808603 ], [ -1.41326705969399, 50.949845389090001 ], [ -1.40925854639891, 50.951690383970003 ], [ -1.40471812849242, 50.948258187081002 ], [ -1.39840863821668, 50.9486907776555 ], [ -1.4012946256355, 50.9455873038766 ], [ -1.39749009542645, 50.9446031748775 ] ] ] } },
{ "type": "Feature", "properties": { "LSOA21CD": "E01017149", "LSOA21NM": "Southampton 001E" }, "geometry": { "type": "Polygon", "coordinates": [ [ [ -1.38892077225642, 50.940150133099301 ], [ -1.38883646609023, 50.940095186842399 ], [ -1.3896744196666, 50.938539579217199 ], [ -1.3964299200943, 50.937993333579001 ], [ -1.39914198358597, 50.93781058962 ], [ -1.39869473716397, 50.938286578556202 ], [ -1.39824731591725, 50.941081986095703 ], [ -1.38892077225642, 50.940150133099301 ] ] ] } },
{ "type": "Feature", "properties": { "LSOA21CD": "E01017150", "LSOA21NM": "Southampton 006B" }, "geometry": { "type": "Polygon", "coordinates": [ [ [ -1.40240681121511, 50.936979531309802 ], [ -1.40652969024469, 50.935843335370897 ], [ -1.41199764306267, 50.9346928923555 ], [ -1.41186261770394, 50.9380779334601 ], [ -1.41970070134443, 50.939972179721302 ], [ -1.41992627478636, 50.943789624570897 ], [ -1.40724530907558, 50.9420992287628 ], [ -1.40240681121511, 50.936979531309802 ] ] ] } },
{ "type": "Feature", "properties": { "LSOA21CD": "E01017151", "LSOA21NM": "Southampton 006C" }, "geometry": { "type": "Polygon", "coordinates": [ [ [ -1.41970070134443, 50.939972179721302 ], [ -1.42174430275274, 50.936650561758697 ], [ -1.42971710398241, 50.929906852191799 ], [ -1.43194630389925, 50.931817976321199 ], [ -1.43157044197649, 50.933843494211303 ], [ -1.43179944252201, 50.9358421229404 ], [ -1.42406189845504, 50.943450475640901 ], [ -1.41992627478636, 50.943789624570897 ], [ -1.41970070134443, 50.939972179721302 ] ] ] } },
{ "type": "Feature", "properties": { "LSOA21CD": "E01017152", "LSOA21NM": "Southampton 006D" }, "geometry": { "type": "Polygon", "coordinates": [ [ [ -1.41914248722433, 50.934169260859001 ], [ -1.42708241286443, 50.929635997936003 ], [ -1.42971710398241, 50.929906852191799 ], [ -1.42174430275274, 50.936650561758697 ], [ -1.41914248722433, 50.934169260859001 ] ] ] } },
{ "type": "Feature", "properties": { "LSOA21CD": "E01017153", "LSOA21NM": "Southampton 022A" }, "geometry": { "type": "Polygon", "coordinates": [ [ [ -1.39470238710136, 50.907856795186397 ], [ -1.39821114979024, 50.908029863710098 ], [ -1.40118042639347, 50.9100966924454 ], [ -1.40164157778218, 50.910601512134903 ], [ -1.40119382693371, 50.911519982860803 ], [ -1.39649006456839, 50.911754384792097 ], [ -1.39470238710136, 50.907856795186397 ] ] ] } },
{ "type": "Feature", "properties": { "LSOA21CD": "E01017154", "LSOA21NM": "Southampton 022B" }, "geometry": { "type": "MultiPolygon", "coordinates": [ [ [ [ -1.38349436845893, 50.915065297162499 ], [ -1.38553512385367, 50.914685134379397 ], [ -1.38712711455601, 50.916440711768601 ], [ -1.38349436845893, 50.915065297162499 ] ] ], [ [ [ -1.3920639013637, 50.904714122506697 ], [ -1.39262465195012, 50.904666179536399 ], [ -1.39216437378912, 50.908176334353897 ], [ -1.39255889358842, 50.911051015571601 ], [ -1.38942348561147, 50.917324175771 ], [ -1.38968402309308, 50.915164783841597 ], [ -1.37751590942638, 50.911306331942299 ], [ -1.388281272141, 50.905029295282802 ], [ -1.38827985285347, 50.9049819654552 ], [ -1.3920639013637, 50.904714122506697 ] ] ] ] } },
{ "type": "Feature", "properties": { "LSOA21CD": "E01017155", "LSOA21NM": "Southampton 022C" }, "geometry": { "type": "Polygon", "coordinates": [ [ [ -1.38919483119713, 50.9191542462763 ], [ -1.38927415395492, 50.9185074158517 ], [ -1.38942348561147, 50.917324175771 ], [ -1.39255889358842, 50.911051015571601 ], [ -1.39539450586773, 50.911949591398901 ], [ -1.39734396592908, 50.915234021913598 ], [ -1.39030362433328, 50.919831538298503 ], [ -1.38919483119713, 50.9191542462763 ] ] ] } },
{ "type": "Feature", "properties": { "LSOA21CD": "E01017156", "LSOA21NM": "Southampton 022D" }, "geometry": { "type": "Polygon", "coordinates": [ [ [ -1.39255889358842, 50.911051015571601 ], [ -1.39216437378912, 50.908176334353897 ], [ -1.39470238710136, 50.907856795186397 ], [ -1.39649006456839, 50.911754384792097 ], [ -1.39539450586773, 50.911949591398901 ], [ -1.39255889358842, 50.911051015571601 ] ] ] } },
{ "type": "Feature", "properties": { "LSOA21CD": "E01017157", "LSOA21NM": "Southampton 017A" }, "geometry": { "type": "Polygon", "coordinates": [ [ [ -1.39563443533956, 50.9251973766712 ], [ -1.39543486928895, 50.922231143980099 ], [ -1.39947945524613, 50.921273781106898 ], [ -1.40082283153245, 50.923327112078503 ], [ -1.39620660823407, 50.925305332458002 ], [ -1.39563443533956, 50.9251973766712 ] ] ] } },
{ "type": "Feature", "properties": { "LSOA21CD": "E01017158", "LSOA21NM": "Southampton 017B" }, "geometry": { "type": "Polygon", "coordinates": [ [ [ -1.39947945524613, 50.921273781106898 ], [ -1.39868808524655, 50.918600535573802 ], [ -1.40126130247821, 50.9159096363774 ], [ -1.40557559212797, 50.916517975531796 ], [ -1.4049211184986, 50.921538001508502 ], [ -1.40501907386695, 50.921978915147001 ], [ -1.40082283153245, 50.923327112078503 ], [ -1.39947945524613, 50.921273781106898 ] ] ] } },
{ "type": "Feature", "properties": { "LSOA21CD": "E01017159", "LSOA21NM": "Southampton 017C" }, "geometry": { "type": "Polygon", "coordinates": [ [ [ -1.39543978800754, 50.921247797099902 ], [ -1.3953372380055, 50.919011082931902 ], [ -1.39868808524655, 50.918600535573802 ], [ -1.39947945524613, 50.921273781106898 ], [ -1.39543486928895, 50.922231143980099 ], [ -1.39543978800754, 50.921247797099902 ] ] ] } },
{ "type": "Feature", "properties": { "LSOA21CD": "E01017160", "LSOA21NM": "Southampton 017D" }, "geometry": { "type": "Polygon", "coordinates": [ [ [ -1.39734396592908, 50.915234021913598 ], [ -1.39958725066395, 50.914628852030901 ], [ -1.40126130247821, 50.9159096363774 ], [ -1.39868808524655, 50.918600535573802 ], [ -1.3953372380055, 50.919011082931902 ], [ -1.39393362483799, 50.919620129029298 ], [ -1.39030362433328, 50.919831538298503 ], [ -1.39734396592908, 50.915234021913598 ] ] ] } },
{ "type": "Feature", "properties": { "LSOA21CD": "E01017162", "LSOA21NM": "Southampton 025A" }, "geometry": { "type": "Polygon", "coordinates": [ [ [ -1.33137877676597, 50.911392971995397 ], [ -1.33481665359196, 50.909704165630899 ], [ -1.34192471523483, 50.911313257090001 ], [ -1.3392100581576, 50.914605018558802 ], [ -1.33104697820103, 50.915064996623698 ], [ -1.33137877676597, 50.911392971995397 ] ] ] } },
{ "type": "Feature", "properties": { "LSOA21CD": "E01017163", "LSOA21NM": "Southampton 025B" }, "geometry": { "type": "Polygon", "coordinates": [ [ [ -1.32995742191365, 50.907058848199597 ], [ -1.33255897851029, 50.904852383321703 ], [ -1.33555785959119, 50.906596914886102 ], [ -1.33481665359196, 50.909704165630899 ], [ -1.33137877676597, 50.911392971995397 ], [ -1.32995742191365, 50.907058848199597 ] ] ] } },
{ "type": "Feature", "properties": { "LSOA21CD": "E01017164", "LSOA21NM": "Southampton 025C" }, "geometry": { "type": "Polygon", "coordinates": [ [ [ -1.34192471523483, 50.911313257090001 ], [ -1.3451380814968, 50.908019101115798 ], [ -1.35409425951591, 50.912392023235199 ], [ -1.34938489190279, 50.914592120685199 ], [ -1.34126976238487, 50.914596029525597 ], [ -1.3392100581576, 50.914605018558802 ], [ -1.34192471523483, 50.911313257090001 ] ] ] } },
{ "type": "Feature", "properties": { "LSOA21CD": "E01017165", "LSOA21NM": "Southampton 025D" }, "geometry": { "type": "Polygon", "coordinates": [ [ [ -1.3298156431236, 50.914940829653801 ], [ -1.32464049608941, 50.908433519097102 ], [ -1.328644349896, 50.906588568803002 ], [ -1.32995742191365, 50.907058848199597 ], [ -1.33137877676597, 50.911392971995397 ], [ -1.33104697820103, 50.915064996623698 ], [ -1.3298156431236, 50.914940829653801 ] ] ] } },
{ "type": "Feature", "properties": { "LSOA21CD": "E01017166", "LSOA21NM": "Southampton 025E" }, "geometry": { "type": "Polygon", "coordinates": [ [ [ -1.33481665359196, 50.909704165630899 ], [ -1.33555785959119, 50.906596914886102 ], [ -1.33945444036942, 50.905184082718101 ], [ -1.34474269128751, 50.907826755564997 ], [ -1.3451380814968, 50.908019101115798 ], [ -1.34192471523483, 50.911313257090001 ], [ -1.33481665359196, 50.909704165630899 ] ] ] } },
{ "type": "Feature", "properties": { "LSOA21CD": "E01017167", "LSOA21NM": "Southampton 027A" }, "geometry": { "type": "Polygon", "coordinates": [ [ [ -1.33255897851029, 50.904852383321703 ], [ -1.33179468732841, 50.900985813740597 ], [ -1.33526487024648, 50.9014738787032 ], [ -1.33688607412227, 50.903939802168097 ], [ -1.33945444036942, 50.905184082718101 ], [ -1.33555785959119, 50.906596914886102 ], [ -1.33255897851029, 50.904852383321703 ] ] ] } },
{ "type": "Feature", "properties": { "LSOA21CD": "E01017168", "LSOA21NM": "Southampton 027B" }, "geometry": { "type": "Polygon", "coordinates": [ [ [ -1.328644349896, 50.906588568803002 ], [ -1.32208928812776, 50.900929305858902 ], [ -1.32755991674895, 50.899443758502102 ], [ -1.33179468732841, 50.900985813740597 ], [ -1.33255897851029, 50.904852383321703 ], [ -1.32995742191365, 50.907058848199597 ], [ -1.328644349896, 50.906588568803002 ] ] ] } },
{ "type": "Feature", "properties": { "LSOA21CD": "E01017169", "LSOA21NM": "Southampton 027C" }, "geometry": { "type": "Polygon", "coordinates": [ [ [ -1.33526487024648, 50.9014738787032 ], [ -1.33846319876614, 50.898823351604001 ], [ -1.34358656766374, 50.8999176720368 ], [ -1.34541847112899, 50.900967345535001 ], [ -1.34088278108519, 50.902480434896098 ], [ -1.33688607412227, 50.903939802168097 ], [ -1.33526487024648, 50.9014738787032 ] ] ] } },
{ "type": "Feature", "properties": { "LSOA21CD": "E01017170", "LSOA21NM": "Southampton 027D" }, "geometry": { "type": "Polygon", "coordinates": [ [ [ -1.33179468732841, 50.900985813740597 ], [ -1.32755991674895, 50.899443758502102 ], [ -1.33505506156448, 50.8973713689061 ], [ -1.34058217543981, 50.8962378900125 ], [ -1.3435175270623, 50.8989722185419 ], [ -1.34358656766374, 50.8999176720368 ], [ -1.33846319876614, 50.898823351604001 ], [ -1.33526487024648, 50.9014738787032 ], [ -1.33179468732841, 50.900985813740597 ] ] ] } },
{ "type": "Feature", "properties": { "LSOA21CD": "E01017171", "LSOA21NM": "Southampton 014A" }, "geometry": { "type": "Polygon", "coordinates": [ [ [ -1.3697383842496, 50.916700346452302 ], [ -1.37585423662798, 50.917699537363802 ], [ -1.37594399343204, 50.921546639350197 ], [ -1.36894407360104, 50.924216436691097 ], [ -1.36817328550168, 50.924241308926199 ], [ -1.3697383842496, 50.916700346452302 ] ] ] } },
{ "type": "Feature", "properties": { "LSOA21CD": "E01017172", "LSOA21NM": "Southampton 014B" }, "geometry": { "type": "Polygon", "coordinates": [ [ [ -1.37585423662798, 50.917699537363802 ], [ -1.37154683689102, 50.911958802001699 ], [ -1.37178821374147, 50.9119604520141 ], [ -1.37216544078783, 50.912293005724102 ], [ -1.3767477171279, 50.916321848389003 ], [ -1.38349436845893, 50.915065297162499 ], [ -1.38712711455601, 50.916440711768601 ], [ -1.38765250195773, 50.917020051822398 ], [ -1.37952589102291, 50.920670743485999 ], [ -1.37736396901948, 50.919176612041603 ], [ -1.37594399343204, 50.921546639350197 ], [ -1.37585423662798, 50.917699537363802 ] ] ] } },
{ "type": "Feature", "properties": { "LSOA21CD": "E01017173", "LSOA21NM": "Southampton 014C" }, "geometry": { "type": "Polygon", "coordinates": [ [ [ -1.36830296525203, 50.928333400260598 ], [ -1.36425322924323, 50.925441172968497 ], [ -1.36649245578988, 50.9160404401268 ], [ -1.3697383842496, 50.916700346452302 ], [ -1.36817328550168, 50.924241308926199 ], [ -1.37075340237066, 50.928690613535601 ], [ -1.36830296525203, 50.928333400260598 ] ] ] } },
{ "type": "Feature", "properties": { "LSOA21CD": "E01017174", "LSOA21NM": "Southampton 008A" }, "geometry": { "type": "Polygon", "coordinates": [ [ [ -1.35393391770418, 50.9362240833211 ], [ -1.3559312087637, 50.9332718395437 ], [ -1.35644690693377, 50.933049071343099 ], [ -1.36214286339646, 50.933378260972098 ], [ -1.35975963372075, 50.930796186758002 ], [ -1.36321948844878, 50.930235039336999 ], [ -1.36670043608965, 50.933196821667899 ], [ -1.37121326705015, 50.932935811768502 ], [ -1.36815500794834, 50.935932768473599 ], [ -1.35894360704977, 50.937996414502898 ], [ -1.35393391770418, 50.9362240833211 ] ] ] } },
{ "type": "Feature", "properties": { "LSOA21CD": "E01017175", "LSOA21NM": "Southampton 008B" }, "geometry": { "type": "Polygon", "coordinates": [ [ [ -1.36670043608965, 50.933196821667899 ], [ -1.36830296525203, 50.928333400260598 ], [ -1.37075340237066, 50.928690613535601 ], [ -1.37452847329097, 50.928229536695397 ], [ -1.38052556977449, 50.931583035769201 ], [ -1.3805683164164, 50.931697718405502 ], [ -1.38055626538659, 50.9324258973596 ], [ -1.37950539683922, 50.934285234051103 ], [ -1.37092526684278, 50.935720190719799 ], [ -1.37022550295733, 50.935783618319199 ], [ -1.36815500794834, 50.935932768473599 ], [ -1.37121326705015, 50.932935811768502 ], [ -1.36670043608965, 50.933196821667899 ] ] ] } },
{ "type": "Feature", "properties": { "LSOA21CD": "E01017176", "LSOA21NM": "Southampton 008C" }, "geometry": { "type": "Polygon", "coordinates": [ [ [ -1.36321948844878, 50.930235039336999 ], [ -1.35958674428983, 50.925598129450599 ], [ -1.36045258862475, 50.924810370470098 ], [ -1.36291392623612, 50.925095421482098 ], [ -1.36425322924323, 50.925441172968497 ], [ -1.36830296525203, 50.928333400260598 ], [ -1.36670043608965, 50.933196821667899 ], [ -1.36321948844878, 50.930235039336999 ] ] ] } },
{ "type": "Feature", "properties": { "LSOA21CD": "E01017177", "LSOA21NM": "Southampton 014D" }, "geometry": { "type": "Polygon", "coordinates": [ [ [ -1.37452847329097, 50.928229536695397 ], [ -1.37401439801428, 50.924138367014798 ], [ -1.36894407360104, 50.924216436691097 ], [ -1.37594399343204, 50.921546639350197 ], [ -1.37736396901948, 50.919176612041603 ], [ -1.37952589102291, 50.920670743485999 ], [ -1.37690718286638, 50.9218468992228 ], [ -1.38013320294887, 50.9305303417324 ], [ -1.38052556977449, 50.931583035769201 ], [ -1.37452847329097, 50.928229536695397 ] ] ] } },
{ "type": "Feature", "properties": { "LSOA21CD": "E01017178", "LSOA21NM": "Southampton 014E" }, "geometry": { "type": "Polygon", "coordinates": [ [ [ -1.36817328550168, 50.924241308926199 ], [ -1.36894407360104, 50.924216436691097 ], [ -1.37401439801428, 50.924138367014798 ], [ -1.37452847329097, 50.928229536695397 ], [ -1.37075340237066, 50.928690613535601 ], [ -1.36817328550168, 50.924241308926199 ] ] ] } },
{ "type": "Feature", "properties": { "LSOA21CD": "E01017179", "LSOA21NM": "Southampton 008D" }, "geometry": { "type": "Polygon", "coordinates": [ [ [ -1.35644690693377, 50.933049071343099 ], [ -1.35793263377062, 50.930732977610603 ], [ -1.35958674428983, 50.925598129450599 ], [ -1.36321948844878, 50.930235039336999 ], [ -1.35975963372075, 50.930796186758002 ], [ -1.36214286339646, 50.933378260972098 ], [ -1.35644690693377, 50.933049071343099 ] ] ] } },
{ "type": "Feature", "properties": { "LSOA21CD": "E01017180", "LSOA21NM": "Southampton 002A" }, "geometry": { "type": "Polygon", "coordinates": [ [ [ -1.43267418050016, 50.943664459163102 ], [ -1.4357828001089, 50.940849871883898 ], [ -1.43709713979138, 50.9439527999332 ], [ -1.44257423720364, 50.944083471558102 ], [ -1.44187910554349, 50.947154881067497 ], [ -1.43238732480194, 50.948245104597099 ], [ -1.43267418050016, 50.943664459163102 ] ] ] } },
{ "type": "Feature", "properties": { "LSOA21CD": "E01017181", "LSOA21NM": "Southampton 002B" }, "geometry": { "type": "Polygon", "coordinates": [ [ [ -1.44187910554349, 50.947154881067497 ], [ -1.44257423720364, 50.944083471558102 ], [ -1.44355075228644, 50.943233541781503 ], [ -1.45056317418979, 50.942715846558997 ], [ -1.45221567583165, 50.943711458911203 ], [ -1.45167956297174, 50.949232015565698 ], [ -1.44187910554349, 50.947154881067497 ] ] ] } },
{ "type": "Feature", "properties": { "LSOA21CD": "E01017182", "LSOA21NM": "Southampton 004A" }, "geometry": { "type": "Polygon", "coordinates": [ [ [ -1.44734219739617, 50.940668341996201 ], [ -1.44660686983654, 50.938254158744598 ], [ -1.45121519315273, 50.937145408059202 ], [ -1.45056317418979, 50.942715846558997 ], [ -1.44355075228644, 50.943233541781503 ], [ -1.44734219739617, 50.940668341996201 ] ] ] } },
{ "type": "Feature", "properties": { "LSOA21CD": "E01017183", "LSOA21NM": "Southampton 002C" }, "geometry": { "type": "Polygon", "coordinates": [ [ [ -1.4237007883686, 50.947249903391402 ], [ -1.42404828707994, 50.9435281130352 ], [ -1.43267418050016, 50.943664459163102 ], [ -1.43238732480194, 50.948245104597099 ], [ -1.4237007883686, 50.947249903391402 ] ] ] } },
{ "type": "Feature", "properties": { "LSOA21CD": "E01017184", "LSOA21NM": "Southampton 004B" }, "geometry": { "type": "Polygon", "coordinates": [ [ [ -1.45221567583165, 50.943711458911203 ], [ -1.45056317418979, 50.942715846558997 ], [ -1.45121519315273, 50.937145408059202 ], [ -1.45335698647583, 50.936690395588002 ], [ -1.4538111071661, 50.937173602144597 ], [ -1.45944534207129, 50.943176353174003 ], [ -1.45934652174718, 50.943486237305301 ], [ -1.45595549737063, 50.946068321209999 ], [ -1.45221567583165, 50.943711458911203 ] ] ] } },
{ "type": "Feature", "properties": { "LSOA21CD": "E01017185", "LSOA21NM": "Southampton 002D" }, "geometry": { "type": "Polygon", "coordinates": [ [ [ -1.42404828707994, 50.9435281130352 ], [ -1.42406189845504, 50.943450475640901 ], [ -1.43179944252201, 50.9358421229404 ], [ -1.4357828001089, 50.940849871883898 ], [ -1.43267418050016, 50.943664459163102 ], [ -1.42404828707994, 50.9435281130352 ] ] ] } },
{ "type": "Feature", "properties": { "LSOA21CD": "E01017186", "LSOA21NM": "Southampton 004C" }, "geometry": { "type": "Polygon", "coordinates": [ [ [ -1.43603899825895, 50.937164759312502 ], [ -1.44648473729553, 50.938011397708003 ], [ -1.44660686983654, 50.938254158744598 ], [ -1.44734219739617, 50.940668341996201 ], [ -1.44051681340109, 50.942246427287998 ], [ -1.43603899825895, 50.937164759312502 ] ] ] } },
{ "type": "Feature", "properties": { "LSOA21CD": "E01017187", "LSOA21NM": "Southampton 002E" }, "geometry": { "type": "Polygon", "coordinates": [ [ [ -1.4357828001089, 50.940849871883898 ], [ -1.43179944252201, 50.9358421229404 ], [ -1.43157044197649, 50.933843494211303 ], [ -1.43625245020899, 50.934320466980203 ], [ -1.43603899825895, 50.937164759312502 ], [ -1.44051681340109, 50.942246427287998 ], [ -1.44734219739617, 50.940668341996201 ], [ -1.44355075228644, 50.943233541781503 ], [ -1.44257423720364, 50.944083471558102 ], [ -1.43709713979138, 50.9439527999332 ], [ -1.4357828001089, 50.940849871883898 ] ] ] } },
{ "type": "Feature", "properties": { "LSOA21CD": "E01017188", "LSOA21NM": "Southampton 004D" }, "geometry": { "type": "Polygon", "coordinates": [ [ [ -1.43603899825895, 50.937164759312502 ], [ -1.43625245020899, 50.934320466980203 ], [ -1.44391369348849, 50.933243424215 ], [ -1.44494515760774, 50.933363680015802 ], [ -1.44648473729553, 50.938011397708003 ], [ -1.43603899825895, 50.937164759312502 ] ] ] } },
{ "type": "Feature", "properties": { "LSOA21CD": "E01017189", "LSOA21NM": "Southampton 020A" }, "geometry": { "type": "Polygon", "coordinates": [ [ [ -1.41537354205813, 50.916980072623097 ], [ -1.41541430186129, 50.914865860102203 ], [ -1.41566061900952, 50.911382597102701 ], [ -1.42005072343544, 50.912365081499502 ], [ -1.41934039696213, 50.917151872587603 ], [ -1.41537354205813, 50.916980072623097 ] ] ] } },
{ "type": "Feature", "properties": { "LSOA21CD": "E01017190", "LSOA21NM": "Southampton 020B" }, "geometry": { "type": "Polygon", "coordinates": [ [ [ -1.40557559212797, 50.916517975531796 ], [ -1.4058397265437, 50.916554909250699 ], [ -1.40647947700979, 50.916637790251599 ], [ -1.41541430186129, 50.914865860102203 ], [ -1.41537354205813, 50.916980072623097 ], [ -1.41469182907295, 50.919090487364699 ], [ -1.41336448585383, 50.9196889222628 ], [ -1.40557559212797, 50.916517975531796 ] ] ] } },
{ "type": "Feature", "properties": { "LSOA21CD": "E01017191", "LSOA21NM": "Southampton 020C" }, "geometry": { "type": "Polygon", "coordinates": [ [ [ -1.42005072343544, 50.912365081499502 ], [ -1.42339669037426, 50.912352080788601 ], [ -1.42451830638674, 50.913435459112399 ], [ -1.42213201387198, 50.916052828696898 ], [ -1.41934039696213, 50.917151872587603 ], [ -1.42005072343544, 50.912365081499502 ] ] ] } },
{ "type": "Feature", "properties": { "LSOA21CD": "E01017192", "LSOA21NM": "Southampton 021A" }, "geometry": { "type": "Polygon", "coordinates": [ [ [ -1.42213201387198, 50.916052828696898 ], [ -1.42451830638674, 50.913435459112399 ], [ -1.43211242037909, 50.915096245594199 ], [ -1.43272040817023, 50.916773413063098 ], [ -1.42772689949056, 50.917884331994699 ], [ -1.42725556860503, 50.917523052372701 ], [ -1.42179252256366, 50.918947948442302 ], [ -1.42213201387198, 50.916052828696898 ] ] ] } },
{ "type": "Feature", "properties": { "LSOA21CD": "E01017193", "LSOA21NM": "Southampton 021B" }, "geometry": { "type": "Polygon", "coordinates": [ [ [ -1.42451830638674, 50.913435459112399 ], [ -1.43201504937307, 50.9114639668664 ], [ -1.43354954919177, 50.912401297597597 ], [ -1.43211242037909, 50.915096245594199 ], [ -1.42451830638674, 50.913435459112399 ] ] ] } },
{ "type": "Feature", "properties": { "LSOA21CD": "E01017194", "LSOA21NM": "Southampton 021C" }, "geometry": { "type": "Polygon", "coordinates": [ [ [ -1.43354954919177, 50.912401297597597 ], [ -1.43201504937307, 50.9114639668664 ], [ -1.41969075910391, 50.907108886637602 ], [ -1.42339669037426, 50.912352080788601 ], [ -1.42005072343544, 50.912365081499502 ], [ -1.41566061900952, 50.911382597102701 ], [ -1.41534680051632, 50.909881208560499 ], [ -1.41810834763497, 50.900993198423997 ], [ -1.41823157215843, 50.901031438502201 ], [ -1.43248580173196, 50.905453704452903 ], [ -1.44044254559556, 50.907921161914899 ], [ -1.44096436395827, 50.908082954567497 ], [ -1.44102910611315, 50.908056957442398 ], [ -1.4438038900048, 50.912156553458701 ], [ -1.43923569884492, 50.913084644957003 ], [ -1.43354954919177, 50.912401297597597 ] ] ] } },
{ "type": "Feature", "properties": { "LSOA21CD": "E01017195", "LSOA21NM": "Southampton 021D" }, "geometry": { "type": "Polygon", "coordinates": [ [ [ -1.42339669037426, 50.912352080788601 ], [ -1.41969075910391, 50.907108886637602 ], [ -1.43201504937307, 50.9114639668664 ], [ -1.42451830638674, 50.913435459112399 ], [ -1.42339669037426, 50.912352080788601 ] ] ] } },
{ "type": "Feature", "properties": { "LSOA21CD": "E01017196", "LSOA21NM": "Southampton 020D" }, "geometry": { "type": "Polygon", "coordinates": [ [ [ -1.4049211184986, 50.921538001508502 ], [ -1.40557559212797, 50.916517975531796 ], [ -1.41336448585383, 50.9196889222628 ], [ -1.41006839844507, 50.922508783711599 ], [ -1.4049211184986, 50.921538001508502 ] ] ] } },
{ "type": "Feature", "properties": { "LSOA21CD": "E01017197", "LSOA21NM": "Southampton 020E" }, "geometry": { "type": "Polygon", "coordinates": [ [ [ -1.41469182907295, 50.919090487364699 ], [ -1.41537354205813, 50.916980072623097 ], [ -1.41934039696213, 50.917151872587603 ], [ -1.42213201387198, 50.916052828696898 ], [ -1.42179252256366, 50.918947948442302 ], [ -1.42725556860503, 50.917523052372701 ], [ -1.42203294888758, 50.921401511311402 ], [ -1.41469182907295, 50.919090487364699 ] ] ] } },
{ "type": "Feature", "properties": { "LSOA21CD": "E01017198", "LSOA21NM": "Southampton 018A" }, "geometry": { "type": "Polygon", "coordinates": [ [ [ -1.33241812063345, 50.918134061567898 ], [ -1.3298156431236, 50.914940829653801 ], [ -1.33104697820103, 50.915064996623698 ], [ -1.3392100581576, 50.914605018558802 ], [ -1.34126976238487, 50.914596029525597 ], [ -1.3432708625208, 50.916442191073401 ], [ -1.33665258563972, 50.9204961620609 ], [ -1.33241812063345, 50.918134061567898 ] ] ] } },
{ "type": "Feature", "properties": { "LSOA21CD": "E01017199", "LSOA21NM": "Southampton 018B" }, "geometry": { "type": "Polygon", "coordinates": [ [ [ -1.34436643088117, 50.917212332406201 ], [ -1.3432708625208, 50.916442191073401 ], [ -1.34126976238487, 50.914596029525597 ], [ -1.34938489190279, 50.914592120685199 ], [ -1.3549233958454, 50.919357951679203 ], [ -1.34436643088117, 50.917212332406201 ] ] ] } },
{ "type": "Feature", "properties": { "LSOA21CD": "E01017200", "LSOA21NM": "Southampton 016A" }, "geometry": { "type": "Polygon", "coordinates": [ [ [ -1.3549233958454, 50.919357951679203 ], [ -1.34938489190279, 50.914592120685199 ], [ -1.35409425951591, 50.912392023235199 ], [ -1.35613497645753, 50.913484854950198 ], [ -1.36249285833327, 50.9155163854021 ], [ -1.36025584287579, 50.917805113138897 ], [ -1.35589712347141, 50.920473358673704 ], [ -1.3549233958454, 50.919357951679203 ] ] ] } },
{ "type": "Feature", "properties": { "LSOA21CD": "E01017201", "LSOA21NM": "Southampton 016B" }, "geometry": { "type": "Polygon", "coordinates": [ [ [ -1.3558810138557, 50.929466924188397 ], [ -1.35348665945384, 50.926547662648801 ], [ -1.35518166777622, 50.924896373258697 ], [ -1.36045258862475, 50.924810370470098 ], [ -1.35958674428983, 50.925598129450599 ], [ -1.35793263377062, 50.930732977610603 ], [ -1.3558810138557, 50.929466924188397 ] ] ] } },
{ "type": "Feature", "properties": { "LSOA21CD": "E01017202", "LSOA21NM": "Southampton 016C" }, "geometry": { "type": "Polygon", "coordinates": [ [ [ -1.36045258862475, 50.924810370470098 ], [ -1.35518166777622, 50.924896373258697 ], [ -1.35214611377142, 50.921626734436202 ], [ -1.35589712347141, 50.920473358673704 ], [ -1.36025584287579, 50.917805113138897 ], [ -1.35734487612853, 50.921303346058302 ], [ -1.36291392623612, 50.925095421482098 ], [ -1.36045258862475, 50.924810370470098 ] ] ] } },
{ "type": "Feature", "properties": { "LSOA21CD": "E01017203", "LSOA21NM": "Southampton 016D" }, "geometry": { "type": "Polygon", "coordinates": [ [ [ -1.36291392623612, 50.925095421482098 ], [ -1.35734487612853, 50.921303346058302 ], [ -1.36025584287579, 50.917805113138897 ], [ -1.36249285833327, 50.9155163854021 ], [ -1.36566837201262, 50.915757725828399 ], [ -1.36649245578988, 50.9160404401268 ], [ -1.36425322924323, 50.925441172968497 ], [ -1.36291392623612, 50.925095421482098 ] ] ] } },
{ "type": "Feature", "properties": { "LSOA21CD": "E01017204", "LSOA21NM": "Southampton 016E" }, "geometry": { "type": "Polygon", "coordinates": [ [ [ -1.35014188313082, 50.925799873987302 ], [ -1.34737253040013, 50.924537696103798 ], [ -1.34645279340029, 50.921670711230597 ], [ -1.35214611377142, 50.921626734436202 ], [ -1.35518166777622, 50.924896373258697 ], [ -1.35348665945384, 50.926547662648801 ], [ -1.35014188313082, 50.925799873987302 ] ] ] } },
{ "type": "Feature", "properties": { "LSOA21CD": "E01017205", "LSOA21NM": "Southampton 018C" }, "geometry": { "type": "Polygon", "coordinates": [ [ [ -1.33665258563972, 50.9204961620609 ], [ -1.3432708625208, 50.916442191073401 ], [ -1.34436643088117, 50.917212332406201 ], [ -1.34293732903584, 50.923121373701001 ], [ -1.33948754665633, 50.923712736537603 ], [ -1.33665258563972, 50.9204961620609 ] ] ] } },
{ "type": "Feature", "properties": { "LSOA21CD": "E01017206", "LSOA21NM": "Southampton 018D" }, "geometry": { "type": "Polygon", "coordinates": [ [ [ -1.34293732903584, 50.923121373701001 ], [ -1.34436643088117, 50.917212332406201 ], [ -1.3549233958454, 50.919357951679203 ], [ -1.35589712347141, 50.920473358673704 ], [ -1.35214611377142, 50.921626734436202 ], [ -1.34645279340029, 50.921670711230597 ], [ -1.34737253040013, 50.924537696103798 ], [ -1.34293732903584, 50.923121373701001 ] ] ] } },
{ "type": "Feature", "properties": { "LSOA21CD": "E01017207", "LSOA21NM": "Southampton 015A" }, "geometry": { "type": "Polygon", "coordinates": [ [ [ -1.44193652853578, 50.926236157902203 ], [ -1.4427112451876, 50.925747573298302 ], [ -1.44720847259013, 50.924355229589402 ], [ -1.45117085338838, 50.927558994189397 ], [ -1.44795599626459, 50.930839219255702 ], [ -1.44791767943759, 50.930879675340002 ], [ -1.44193652853578, 50.926236157902203 ] ] ] } },
{ "type": "Feature", "properties": { "LSOA21CD": "E01017208", "LSOA21NM": "Southampton 019A" }, "geometry": { "type": "Polygon", "coordinates": [ [ [ -1.44720847259013, 50.924355229589402 ], [ -1.44752170006794, 50.920479800581099 ], [ -1.45067329972106, 50.918864419927402 ], [ -1.44997434504222, 50.922208684827602 ], [ -1.45511037160923, 50.923411695209097 ], [ -1.45454124429873, 50.924009812146998 ], [ -1.45117085338838, 50.927558994189397 ], [ -1.44720847259013, 50.924355229589402 ] ] ] } },
{ "type": "Feature", "properties": { "LSOA21CD": "E01017209", "LSOA21NM": "Southampton 015B" }, "geometry": { "type": "Polygon", "coordinates": [ [ [ -1.43552972141204, 50.923918802039402 ], [ -1.43849393480449, 50.921400043654103 ], [ -1.44406970197912, 50.9218794243668 ], [ -1.4427112451876, 50.925747573298302 ], [ -1.44193652853578, 50.926236157902203 ], [ -1.43552972141204, 50.923918802039402 ] ] ] } },
{ "type": "Feature", "properties": { "LSOA21CD": "E01017210", "LSOA21NM": "Southampton 019B" }, "geometry": { "type": "Polygon", "coordinates": [ [ [ -1.45067329972106, 50.918864419927402 ], [ -1.45700802008522, 50.917016042267498 ], [ -1.45723968373686, 50.920185007349701 ], [ -1.45511037160923, 50.923411695209097 ], [ -1.44997434504222, 50.922208684827602 ], [ -1.45067329972106, 50.918864419927402 ] ] ] } },
{ "type": "Feature", "properties": { "LSOA21CD": "E01017211", "LSOA21NM": "Southampton 015C" }, "geometry": { "type": "Polygon", "coordinates": [ [ [ -1.43513271883992, 50.923611882460797 ], [ -1.4319641454276, 50.921158225486501 ], [ -1.4372551722604, 50.918110051571198 ], [ -1.43796660853192, 50.917740230400497 ], [ -1.44132159771989, 50.919604793379399 ], [ -1.43849393480449, 50.921400043654103 ], [ -1.43552972141204, 50.923918802039402 ], [ -1.43513271883992, 50.923611882460797 ] ] ] } },
{ "type": "Feature", "properties": { "LSOA21CD": "E01017212", "LSOA21NM": "Southampton 015D" }, "geometry": { "type": "Polygon", "coordinates": [ [ [ -1.43849393480449, 50.921400043654103 ], [ -1.44132159771989, 50.919604793379399 ], [ -1.44475200529513, 50.9177022496456 ], [ -1.44752170006794, 50.920479800581099 ], [ -1.44720847259013, 50.924355229589402 ], [ -1.4427112451876, 50.925747573298302 ], [ -1.44406970197912, 50.9218794243668 ], [ -1.43849393480449, 50.921400043654103 ] ] ] } },
{ "type": "Feature", "properties": { "LSOA21CD": "E01017213", "LSOA21NM": "Southampton 015E" }, "geometry": { "type": "Polygon", "coordinates": [ [ [ -1.43115111276831, 50.920529950331002 ], [ -1.42772689949056, 50.917884331994699 ], [ -1.43272040817023, 50.916773413063098 ], [ -1.4372551722604, 50.918110051571198 ], [ -1.4319641454276, 50.921158225486501 ], [ -1.43115111276831, 50.920529950331002 ] ] ] } },
{ "type": "Feature", "properties": { "LSOA21CD": "E01017214", "LSOA21NM": "Southampton 019C" }, "geometry": { "type": "Polygon", "coordinates": [ [ [ -1.44021821051365, 50.914795255751002 ], [ -1.43923569884492, 50.913084644957003 ], [ -1.4438038900048, 50.912156553458701 ], [ -1.44102910611315, 50.908056957442398 ], [ -1.45098061575981, 50.904060284871001 ], [ -1.46461624589559, 50.910005676980397 ], [ -1.45700802008522, 50.917016042267498 ], [ -1.45067329972106, 50.918864419927402 ], [ -1.4482432817345, 50.915545732938398 ], [ -1.44021821051365, 50.914795255751002 ] ] ] } },
{ "type": "Feature", "properties": { "LSOA21CD": "E01017215", "LSOA21NM": "Southampton 019D" }, "geometry": { "type": "Polygon", "coordinates": [ [ [ -1.44132159771989, 50.919604793379399 ], [ -1.43796660853192, 50.917740230400497 ], [ -1.44021821051365, 50.914795255751002 ], [ -1.4482432817345, 50.915545732938398 ], [ -1.45067329972106, 50.918864419927402 ], [ -1.44752170006794, 50.920479800581099 ], [ -1.44475200529513, 50.9177022496456 ], [ -1.44132159771989, 50.919604793379399 ] ] ] } },
{ "type": "Feature", "properties": { "LSOA21CD": "E01017216", "LSOA21NM": "Southampton 019E" }, "geometry": { "type": "Polygon", "coordinates": [ [ [ -1.43272040817023, 50.916773413063098 ], [ -1.43211242037909, 50.915096245594199 ], [ -1.43354954919177, 50.912401297597597 ], [ -1.43923569884492, 50.913084644957003 ], [ -1.44021821051365, 50.914795255751002 ], [ -1.43796660853192, 50.917740230400497 ], [ -1.4372551722604, 50.918110051571198 ], [ -1.43272040817023, 50.916773413063098 ] ] ] } },
{ "type": "Feature", "properties": { "LSOA21CD": "E01017217", "LSOA21NM": "Southampton 024A" }, "geometry": { "type": "Polygon", "coordinates": [ [ [ -1.36528922786486, 50.908460706875402 ], [ -1.37277562247037, 50.904640680562103 ], [ -1.38204225250656, 50.905697491952203 ], [ -1.37568861974571, 50.909578461302701 ], [ -1.36528922786486, 50.908460706875402 ] ] ] } },
{ "type": "Feature", "properties": { "LSOA21CD": "E01017218", "LSOA21NM": "Southampton 028A" }, "geometry": { "type": "Polygon", "coordinates": [ [ [ -1.36067650180783, 50.906191017165803 ], [ -1.36243346442545, 50.904537667543401 ], [ -1.36584484913016, 50.904366793287601 ], [ -1.37280385750293, 50.9044435089749 ], [ -1.37277562247037, 50.904640680562103 ], [ -1.36528922786486, 50.908460706875402 ], [ -1.36067650180783, 50.906191017165803 ] ] ] } },
{ "type": "Feature", "properties": { "LSOA21CD": "E01017219", "LSOA21NM": "Southampton 028B" }, "geometry": { "type": "Polygon", "coordinates": [ [ [ -1.37277562247037, 50.904640680562103 ], [ -1.37280385750293, 50.9044435089749 ], [ -1.37452889212421, 50.899851755862201 ], [ -1.37726212080202, 50.897968908845201 ], [ -1.38254250887923, 50.897926786125701 ], [ -1.38245311047603, 50.897964958251698 ], [ -1.38252070466166, 50.898135962581399 ], [ -1.38483538441716, 50.903991063145597 ], [ -1.38204225250656, 50.905697491952203 ], [ -1.37277562247037, 50.904640680562103 ] ] ] } },
{ "type": "Feature", "properties": { "LSOA21CD": "E01017220", "LSOA21NM": "Southampton 028C" }, "geometry": { "type": "Polygon", "coordinates": [ [ [ -1.36066225899741, 50.900737693299803 ], [ -1.3653522298261, 50.896831523693002 ], [ -1.36962981546325, 50.898286931738603 ], [ -1.36995435906373, 50.8983878259031 ], [ -1.36513129438263, 50.897888888885703 ], [ -1.36850580577637, 50.9025256846909 ], [ -1.36584484913016, 50.904366793287601 ], [ -1.36243346442545, 50.904537667543401 ], [ -1.36456506635625, 50.902514821974599 ], [ -1.36066225899741, 50.900737693299803 ] ] ] } },
{ "type": "Feature", "properties": { "LSOA21CD": "E01017221", "LSOA21NM": "Southampton 028D" }, "geometry": { "type": "Polygon", "coordinates": [ [ [ -1.36584484913016, 50.904366793287601 ], [ -1.36850580577637, 50.9025256846909 ], [ -1.37452889212421, 50.899851755862201 ], [ -1.37280385750293, 50.9044435089749 ], [ -1.36584484913016, 50.904366793287601 ] ] ] } },
{ "type": "Feature", "properties": { "LSOA21CD": "E01017222", "LSOA21NM": "Southampton 028E" }, "geometry": { "type": "Polygon", "coordinates": [ [ [ -1.36995435906373, 50.8983878259031 ], [ -1.37726212080202, 50.897968908845201 ], [ -1.37452889212421, 50.899851755862201 ], [ -1.36850580577637, 50.9025256846909 ], [ -1.36513129438263, 50.897888888885703 ], [ -1.36995435906373, 50.8983878259031 ] ] ] } },
{ "type": "Feature", "properties": { "LSOA21CD": "E01017223", "LSOA21NM": "Southampton 024B" }, "geometry": { "type": "Polygon", "coordinates": [ [ [ -1.3697383842496, 50.916700346452302 ], [ -1.36649245578988, 50.9160404401268 ], [ -1.36566837201262, 50.915757725828399 ], [ -1.36473903684536, 50.913143814545798 ], [ -1.36789677494663, 50.910499937516299 ], [ -1.37154683689102, 50.911958802001699 ], [ -1.37585423662798, 50.917699537363802 ], [ -1.3697383842496, 50.916700346452302 ] ] ] } },
{ "type": "Feature", "properties": { "LSOA21CD": "E01017224", "LSOA21NM": "Southampton 024C" }, "geometry": { "type": "Polygon", "coordinates": [ [ [ -1.36249285833327, 50.9155163854021 ], [ -1.35613497645753, 50.913484854950198 ], [ -1.35889772828195, 50.909107663144603 ], [ -1.36473903684536, 50.913143814545798 ], [ -1.36566837201262, 50.915757725828399 ], [ -1.36249285833327, 50.9155163854021 ] ] ] } },
{ "type": "Feature", "properties": { "LSOA21CD": "E01017225", "LSOA21NM": "Southampton 024D" }, "geometry": { "type": "Polygon", "coordinates": [ [ [ -1.35889772828195, 50.909107663144603 ], [ -1.36004358859038, 50.908816722496503 ], [ -1.36067650180783, 50.906191017165803 ], [ -1.36528922786486, 50.908460706875402 ], [ -1.37568861974571, 50.909578461302701 ], [ -1.37178821374147, 50.9119604520141 ], [ -1.37154683689102, 50.911958802001699 ], [ -1.36789677494663, 50.910499937516299 ], [ -1.36473903684536, 50.913143814545798 ], [ -1.35889772828195, 50.909107663144603 ] ] ] } },
{ "type": "Feature", "properties": { "LSOA21CD": "E01017226", "LSOA21NM": "Southampton 009A" }, "geometry": { "type": "Polygon", "coordinates": [ [ [ -1.39804148071598, 50.927295365291599 ], [ -1.39620660823407, 50.925305332458002 ], [ -1.40082283153245, 50.923327112078503 ], [ -1.40501907386695, 50.921978915147001 ], [ -1.40560833863116, 50.9267773848037 ], [ -1.40059388871639, 50.926539692673501 ], [ -1.40243984987329, 50.928606481467199 ], [ -1.39804148071598, 50.927295365291599 ] ] ] } },
{ "type": "Feature", "properties": { "LSOA21CD": "E01017227", "LSOA21NM": "Southampton 013A" }, "geometry": { "type": "Polygon", "coordinates": [ [ [ -1.39112066176867, 50.9215626136384 ], [ -1.39393362483799, 50.919620129029298 ], [ -1.3953372380055, 50.919011082931902 ], [ -1.39543978800754, 50.921247797099902 ], [ -1.39229077765968, 50.924171923469402 ], [ -1.39112066176867, 50.9215626136384 ] ] ] } },
{ "type": "Feature", "properties": { "LSOA21CD": "E01017228", "LSOA21NM": "Southampton 013B" }, "geometry": { "type": "Polygon", "coordinates": [ [ [ -1.38160409618622, 50.920907824689401 ], [ -1.38919483119713, 50.9191542462763 ], [ -1.39030362433328, 50.919831538298503 ], [ -1.39393362483799, 50.919620129029298 ], [ -1.39112066176867, 50.9215626136384 ], [ -1.38918409454739, 50.921928191238997 ], [ -1.38525642579544, 50.925183336623803 ], [ -1.38160409618622, 50.920907824689401 ] ] ] } },
{ "type": "Feature", "properties": { "LSOA21CD": "E01017231", "LSOA21NM": "Southampton 009D" }, "geometry": { "type": "Polygon", "coordinates": [ [ [ -1.38498924963867, 50.932190099253702 ], [ -1.38260462496149, 50.932001350701498 ], [ -1.38425662164471, 50.929201580055803 ], [ -1.38905090692558, 50.928559910657697 ], [ -1.39313011656234, 50.934317317542401 ], [ -1.38498924963867, 50.932190099253702 ] ] ] } },
{ "type": "Feature", "properties": { "LSOA21CD": "E01017232", "LSOA21NM": "Southampton 009E" }, "geometry": { "type": "Polygon", "coordinates": [ [ [ -1.39804148071598, 50.927295365291599 ], [ -1.40243984987329, 50.928606481467199 ], [ -1.40076270814364, 50.932974919202003 ], [ -1.39524517349998, 50.932289535848902 ], [ -1.39360088413273, 50.929639805039997 ], [ -1.39804148071598, 50.927295365291599 ] ] ] } },
{ "type": "Feature", "properties": { "LSOA21CD": "E01017233", "LSOA21NM": "Southampton 013C" }, "geometry": { "type": "MultiPolygon", "coordinates": [ [ [ [ -1.38082455327331, 50.932370293874797 ], [ -1.38002211476626, 50.921270905378897 ], [ -1.38160409618622, 50.920907824689401 ], [ -1.38525642579544, 50.925183336623803 ], [ -1.38425662164471, 50.929201580055803 ], [ -1.38260462496149, 50.932001350701498 ], [ -1.38082455327331, 50.932370293874797 ] ] ], [ [ [ -1.38082455327331, 50.932370293874797 ], [ -1.38055626538659, 50.9324258973596 ], [ -1.3805683164164, 50.931697718405502 ], [ -1.38082455327331, 50.932370293874797 ] ] ] ] } },
{ "type": "Feature", "properties": { "LSOA21CD": "E01017234", "LSOA21NM": "Southampton 013D" }, "geometry": { "type": "Polygon", "coordinates": [ [ [ -1.38525642579544, 50.925183336623803 ], [ -1.38918409454739, 50.921928191238997 ], [ -1.39112889076052, 50.927070474665001 ], [ -1.38905090692558, 50.928559910657697 ], [ -1.38425662164471, 50.929201580055803 ], [ -1.38525642579544, 50.925183336623803 ] ] ] } },
{ "type": "Feature", "properties": { "LSOA21CD": "E01017235", "LSOA21NM": "Southampton 013E" }, "geometry": { "type": "Polygon", "coordinates": [ [ [ -1.38918409454739, 50.921928191238997 ], [ -1.39112066176867, 50.9215626136384 ], [ -1.39229077765968, 50.924171923469402 ], [ -1.39543978800754, 50.921247797099902 ], [ -1.39543486928895, 50.922231143980099 ], [ -1.39563443533956, 50.9251973766712 ], [ -1.39112889076052, 50.927070474665001 ], [ -1.38918409454739, 50.921928191238997 ] ] ] } },
{ "type": "Feature", "properties": { "LSOA21CD": "E01017236", "LSOA21NM": "Southampton 012A" }, "geometry": { "type": "Polygon", "coordinates": [ [ [ -1.46504211121132, 50.931435062337897 ], [ -1.46192833976107, 50.9267629307802 ], [ -1.46205534910842, 50.924955408878802 ], [ -1.46630072024012, 50.921998383509397 ], [ -1.46519388637795, 50.926705435128397 ], [ -1.47026054286288, 50.924593190741298 ], [ -1.47304024765852, 50.929797558984802 ], [ -1.4704896820832, 50.9315201894483 ], [ -1.46504211121132, 50.931435062337897 ] ] ] } },
{ "type": "Feature", "properties": { "LSOA21CD": "E01017237", "LSOA21NM": "Southampton 012B" }, "geometry": { "type": "Polygon", "coordinates": [ [ [ -1.45802300790564, 50.926681210002997 ], [ -1.45454124429873, 50.924009812146998 ], [ -1.45511037160923, 50.923411695209097 ], [ -1.45723968373686, 50.920185007349701 ], [ -1.46205534910842, 50.924955408878802 ], [ -1.46192833976107, 50.9267629307802 ], [ -1.45802300790564, 50.926681210002997 ] ] ] } },
{ "type": "Feature", "properties": { "LSOA21CD": "E01017238", "LSOA21NM": "Southampton 007A" }, "geometry": { "type": "Polygon", "coordinates": [ [ [ -1.44795599626459, 50.930839219255702 ], [ -1.45117085338838, 50.927558994189397 ], [ -1.45454124429873, 50.924009812146998 ], [ -1.45802300790564, 50.926681210002997 ], [ -1.45400309493401, 50.9279367751381 ], [ -1.4563817300372, 50.929551122267497 ], [ -1.45080935844919, 50.932699346914603 ], [ -1.44795599626459, 50.930839219255702 ] ] ] } },
{ "type": "Feature", "properties": { "LSOA21CD": "E01017239", "LSOA21NM": "Southampton 012C" }, "geometry": { "type": "Polygon", "coordinates": [ [ [ -1.45723968373686, 50.920185007349701 ], [ -1.45700802008522, 50.917016042267498 ], [ -1.46461624589559, 50.910005676980397 ], [ -1.46475794248893, 50.910158676722602 ], [ -1.47321435260843, 50.9192875847979 ], [ -1.4742307607557, 50.920668341278997 ], [ -1.46630072024012, 50.921998383509397 ], [ -1.46205534910842, 50.924955408878802 ], [ -1.45723968373686, 50.920185007349701 ] ] ] } },
{ "type": "Feature", "properties": { "LSOA21CD": "E01017240", "LSOA21NM": "Southampton 012D" }, "geometry": { "type": "Polygon", "coordinates": [ [ [ -1.46630072024012, 50.921998383509397 ], [ -1.4742307607557, 50.920668341278997 ], [ -1.47479651631876, 50.921306807190902 ], [ -1.47591995913621, 50.922207431820901 ], [ -1.47702365336155, 50.923398392299198 ], [ -1.47732811021086, 50.928461885133103 ], [ -1.47304024765852, 50.929797558984802 ], [ -1.47026054286288, 50.924593190741298 ], [ -1.46519388637795, 50.926705435128397 ], [ -1.46630072024012, 50.921998383509397 ] ] ] } },
{ "type": "Feature", "properties": { "LSOA21CD": "E01017241", "LSOA21NM": "Southampton 007B" }, "geometry": { "type": "Polygon", "coordinates": [ [ [ -1.4538111071661, 50.937173602144597 ], [ -1.45767867794242, 50.9372519109302 ], [ -1.45824460672362, 50.9333276114779 ], [ -1.46425663253944, 50.935076498364303 ], [ -1.45944534207129, 50.943176353174003 ], [ -1.4538111071661, 50.937173602144597 ] ] ] } },
{ "type": "Feature", "properties": { "LSOA21CD": "E01017242", "LSOA21NM": "Southampton 007C" }, "geometry": { "type": "Polygon", "coordinates": [ [ [ -1.4538111071661, 50.937173602144597 ], [ -1.45335698647583, 50.936690395588002 ], [ -1.44779662306754, 50.931375590433703 ], [ -1.44791767943759, 50.930879675340002 ], [ -1.44795599626459, 50.930839219255702 ], [ -1.45080935844919, 50.932699346914603 ], [ -1.4563817300372, 50.929551122267497 ], [ -1.45748616343976, 50.930074532718699 ], [ -1.45824460672362, 50.9333276114779 ], [ -1.45767867794242, 50.9372519109302 ], [ -1.4538111071661, 50.937173602144597 ] ] ] } },
{ "type": "Feature", "properties": { "LSOA21CD": "E01017243", "LSOA21NM": "Southampton 007D" }, "geometry": { "type": "Polygon", "coordinates": [ [ [ -1.44648473729553, 50.938011397708003 ], [ -1.44494515760774, 50.933363680015802 ], [ -1.44779662306754, 50.931375590433703 ], [ -1.45335698647583, 50.936690395588002 ], [ -1.45121519315273, 50.937145408059202 ], [ -1.44660686983654, 50.938254158744598 ], [ -1.44648473729553, 50.938011397708003 ] ] ] } },
{ "type": "Feature", "properties": { "LSOA21CD": "E01017244", "LSOA21NM": "Southampton 007E" }, "geometry": { "type": "Polygon", "coordinates": [ [ [ -1.45824460672362, 50.9333276114779 ], [ -1.45748616343976, 50.930074532718699 ], [ -1.46504211121132, 50.931435062337897 ], [ -1.4704896820832, 50.9315201894483 ], [ -1.46425663253944, 50.935076498364303 ], [ -1.45824460672362, 50.9333276114779 ] ] ] } },
{ "type": "Feature", "properties": { "LSOA21CD": "E01017245", "LSOA21NM": "Southampton 012E" }, "geometry": { "type": "Polygon", "coordinates": [ [ [ -1.45748616343976, 50.930074532718699 ], [ -1.4563817300372, 50.929551122267497 ], [ -1.45400309493401, 50.9279367751381 ], [ -1.45802300790564, 50.926681210002997 ], [ -1.46192833976107, 50.9267629307802 ], [ -1.46504211121132, 50.931435062337897 ], [ -1.45748616343976, 50.930074532718699 ] ] ] } },
{ "type": "Feature", "properties": { "LSOA21CD": "E01017246", "LSOA21NM": "Southampton 010A" }, "geometry": { "type": "Polygon", "coordinates": [ [ [ -1.43129988414127, 50.927998691780303 ], [ -1.43513271883992, 50.923611882460797 ], [ -1.43552972141204, 50.923918802039402 ], [ -1.44193652853578, 50.926236157902203 ], [ -1.43813370755138, 50.928562247232797 ], [ -1.43619940204002, 50.926402657729398 ], [ -1.43255551508414, 50.929904416487297 ], [ -1.43129988414127, 50.927998691780303 ] ] ] } },
{ "type": "Feature", "properties": { "LSOA21CD": "E01017247", "LSOA21NM": "Southampton 011A" }, "geometry": { "type": "Polygon", "coordinates": [ [ [ -1.42570862821071, 50.924479263082603 ], [ -1.42196162460365, 50.921954136988703 ], [ -1.42203294888758, 50.921401511311402 ], [ -1.42725556860503, 50.917523052372701 ], [ -1.42772689949056, 50.917884331994699 ], [ -1.43115111276831, 50.920529950331002 ], [ -1.42787737723896, 50.9201382728859 ], [ -1.42792857544461, 50.924552072999901 ], [ -1.42570862821071, 50.924479263082603 ] ] ] } },
{ "type": "Feature", "properties": { "LSOA21CD": "E01017248", "LSOA21NM": "Southampton 011B" }, "geometry": { "type": "Polygon", "coordinates": [ [ [ -1.41587181898651, 50.927277747431297 ], [ -1.42196162460365, 50.921954136988703 ], [ -1.42570862821071, 50.924479263082603 ], [ -1.42568904447046, 50.9281844987431 ], [ -1.41587181898651, 50.927277747431297 ] ] ] } },
{ "type": "Feature", "properties": { "LSOA21CD": "E01017249", "LSOA21NM": "Southampton 011C" }, "geometry": { "type": "Polygon", "coordinates": [ [ [ -1.40560833863116, 50.9267773848037 ], [ -1.40501907386695, 50.921978915147001 ], [ -1.4049211184986, 50.921538001508502 ], [ -1.41006839844507, 50.922508783711599 ], [ -1.41336448585383, 50.9196889222628 ], [ -1.41469182907295, 50.919090487364699 ], [ -1.42203294888758, 50.921401511311402 ], [ -1.42196162460365, 50.921954136988703 ], [ -1.41587181898651, 50.927277747431297 ], [ -1.40586361768649, 50.929639161781402 ], [ -1.40560833863116, 50.9267773848037 ] ] ] } },
{ "type": "Feature", "properties": { "LSOA21CD": "E01017250", "LSOA21NM": "Southampton 010B" }, "geometry": { "type": "Polygon", "coordinates": [ [ [ -1.42792857544461, 50.924552072999901 ], [ -1.42787737723896, 50.9201382728859 ], [ -1.43115111276831, 50.920529950331002 ], [ -1.4319641454276, 50.921158225486501 ], [ -1.43513271883992, 50.923611882460797 ], [ -1.43129988414127, 50.927998691780303 ], [ -1.42792857544461, 50.924552072999901 ] ] ] } },
{ "type": "Feature", "properties": { "LSOA21CD": "E01017251", "LSOA21NM": "Southampton 010C" }, "geometry": { "type": "Polygon", "coordinates": [ [ [ -1.43157044197649, 50.933843494211303 ], [ -1.43194630389925, 50.931817976321199 ], [ -1.43255551508414, 50.929904416487297 ], [ -1.43619940204002, 50.926402657729398 ], [ -1.43813370755138, 50.928562247232797 ], [ -1.44107367516236, 50.930026714214101 ], [ -1.43801566610134, 50.9292032807531 ], [ -1.43808421478281, 50.932191787275002 ], [ -1.44391369348849, 50.933243424215 ], [ -1.43625245020899, 50.934320466980203 ], [ -1.43157044197649, 50.933843494211303 ] ] ] } },
{ "type": "Feature", "properties": { "LSOA21CD": "E01017252", "LSOA21NM": "Southampton 011D" }, "geometry": { "type": "Polygon", "coordinates": [ [ [ -1.40586361768649, 50.929639161781402 ], [ -1.41587181898651, 50.927277747431297 ], [ -1.42568904447046, 50.9281844987431 ], [ -1.42708241286443, 50.929635997936003 ], [ -1.41914248722433, 50.934169260859001 ], [ -1.41199764306267, 50.9346928923555 ], [ -1.40652969024469, 50.935843335370897 ], [ -1.40586361768649, 50.929639161781402 ] ] ] } },
{ "type": "Feature", "properties": { "LSOA21CD": "E01017253", "LSOA21NM": "Southampton 010D" }, "geometry": { "type": "Polygon", "coordinates": [ [ [ -1.44391369348849, 50.933243424215 ], [ -1.43808421478281, 50.932191787275002 ], [ -1.43801566610134, 50.9292032807531 ], [ -1.44107367516236, 50.930026714214101 ], [ -1.43813370755138, 50.928562247232797 ], [ -1.44193652853578, 50.926236157902203 ], [ -1.44791767943759, 50.930879675340002 ], [ -1.44779662306754, 50.931375590433703 ], [ -1.44494515760774, 50.933363680015802 ], [ -1.44391369348849, 50.933243424215 ] ] ] } },
{ "type": "Feature", "properties": { "LSOA21CD": "E01017254", "LSOA21NM": "Southampton 011E" }, "geometry": { "type": "Polygon", "coordinates": [ [ [ -1.42971710398241, 50.929906852191799 ], [ -1.42708241286443, 50.929635997936003 ], [ -1.42568904447046, 50.9281844987431 ], [ -1.42570862821071, 50.924479263082603 ], [ -1.42792857544461, 50.924552072999901 ], [ -1.43129988414127, 50.927998691780303 ], [ -1.43255551508414, 50.929904416487297 ], [ -1.43194630389925, 50.931817976321199 ], [ -1.42971710398241, 50.929906852191799 ] ] ] } },
{ "type": "Feature", "properties": { "LSOA21CD": "E01017255", "LSOA21NM": "Southampton 030A" }, "geometry": { "type": "Polygon", "coordinates": [ [ [ -1.3519832738761, 50.905432326901902 ], [ -1.35187569980849, 50.904963757753599 ], [ -1.35721909127516, 50.902972736037398 ], [ -1.36066225899741, 50.900737693299803 ], [ -1.36456506635625, 50.902514821974599 ], [ -1.36243346442545, 50.904537667543401 ], [ -1.36067650180783, 50.906191017165803 ], [ -1.36004358859038, 50.908816722496503 ], [ -1.3519832738761, 50.905432326901902 ] ] ] } },
{ "type": "Feature", "properties": { "LSOA21CD": "E01017256", "LSOA21NM": "Southampton 026A" }, "geometry": { "type": "Polygon", "coordinates": [ [ [ -1.35409425951591, 50.912392023235199 ], [ -1.3451380814968, 50.908019101115798 ], [ -1.34474269128751, 50.907826755564997 ], [ -1.35073720739919, 50.906079465723202 ], [ -1.3519832738761, 50.905432326901902 ], [ -1.36004358859038, 50.908816722496503 ], [ -1.35889772828195, 50.909107663144603 ], [ -1.35613497645753, 50.913484854950198 ], [ -1.35409425951591, 50.912392023235199 ] ] ] } },
{ "type": "Feature", "properties": { "LSOA21CD": "E01017257", "LSOA21NM": "Southampton 026B" }, "geometry": { "type": "Polygon", "coordinates": [ [ [ -1.33945444036942, 50.905184082718101 ], [ -1.33688607412227, 50.903939802168097 ], [ -1.34088278108519, 50.902480434896098 ], [ -1.34063135003093, 50.9046071154511 ], [ -1.34533537343683, 50.902885915397597 ], [ -1.34449513645472, 50.905680411924301 ], [ -1.35073720739919, 50.906079465723202 ], [ -1.34474269128751, 50.907826755564997 ], [ -1.33945444036942, 50.905184082718101 ] ] ] } },
{ "type": "Feature", "properties": { "LSOA21CD": "E01017258", "LSOA21NM": "Southampton 030B" }, "geometry": { "type": "Polygon", "coordinates": [ [ [ -1.35291824086239, 50.901454827815002 ], [ -1.35191202146242, 50.899593137962803 ], [ -1.35938538777166, 50.899929869161298 ], [ -1.35721909127516, 50.902972736037398 ], [ -1.35187569980849, 50.904963757753599 ], [ -1.34863610174739, 50.9036723754406 ], [ -1.35291824086239, 50.901454827815002 ] ] ] } },
{ "type": "Feature", "properties": { "LSOA21CD": "E01017259", "LSOA21NM": "Southampton 026C" }, "geometry": { "type": "Polygon", "coordinates": [ [ [ -1.34449513645472, 50.905680411924301 ], [ -1.34533537343683, 50.902885915397597 ], [ -1.34063135003093, 50.9046071154511 ], [ -1.34088278108519, 50.902480434896098 ], [ -1.34541847112899, 50.900967345535001 ], [ -1.35042730823988, 50.901442028122297 ], [ -1.35175067370159, 50.901567407873301 ], [ -1.34863610174739, 50.9036723754406 ], [ -1.35187569980849, 50.904963757753599 ], [ -1.3519832738761, 50.905432326901902 ], [ -1.35073720739919, 50.906079465723202 ], [ -1.34449513645472, 50.905680411924301 ] ] ] } },
{ "type": "Feature", "properties": { "LSOA21CD": "E01017260", "LSOA21NM": "Southampton 026D" }, "geometry": { "type": "Polygon", "coordinates": [ [ [ -1.35175067370159, 50.901567407873301 ], [ -1.35042730823988, 50.901442028122297 ], [ -1.34541847112899, 50.900967345535001 ], [ -1.34358656766374, 50.8999176720368 ], [ -1.3435175270623, 50.8989722185419 ], [ -1.34836652430503, 50.895665075418997 ], [ -1.35097490670657, 50.898006453983797 ], [ -1.35191202146242, 50.899593137962803 ], [ -1.35291824086239, 50.901454827815002 ], [ -1.34863610174739, 50.9036723754406 ], [ -1.35175067370159, 50.901567407873301 ] ] ] } },
{ "type": "Feature", "properties": { "LSOA21CD": "E01017261", "LSOA21NM": "Southampton 030C" }, "geometry": { "type": "Polygon", "coordinates": [ [ [ -1.35191202146242, 50.899593137962803 ], [ -1.35097490670657, 50.898006453983797 ], [ -1.35210516154923, 50.894177904318198 ], [ -1.35668013589955, 50.8937943657807 ], [ -1.35792737694213, 50.894273575575099 ], [ -1.3653522298261, 50.896831523693002 ], [ -1.36066225899741, 50.900737693299803 ], [ -1.35721909127516, 50.902972736037398 ], [ -1.35938538777166, 50.899929869161298 ], [ -1.35191202146242, 50.899593137962803 ] ] ] } },
{ "type": "Feature", "properties": { "LSOA21CD": "E01017262", "LSOA21NM": "Southampton 026E" }, "geometry": { "type": "Polygon", "coordinates": [ [ [ -1.33505506156448, 50.8973713689061 ], [ -1.34420342888915, 50.890938444467899 ], [ -1.34836652430503, 50.895665075418997 ], [ -1.3435175270623, 50.8989722185419 ], [ -1.34058217543981, 50.8962378900125 ], [ -1.33505506156448, 50.8973713689061 ] ] ] } },
{ "type": "Feature", "properties": { "LSOA21CD": "E01017263", "LSOA21NM": "Southampton 030D" }, "geometry": { "type": "Polygon", "coordinates": [ [ [ -1.34836652430503, 50.895665075418997 ], [ -1.34420342888915, 50.890938444467899 ], [ -1.34938522043059, 50.8885877202922 ], [ -1.35668013589955, 50.8937943657807 ], [ -1.35210516154923, 50.894177904318198 ], [ -1.35097490670657, 50.898006453983797 ], [ -1.34836652430503, 50.895665075418997 ] ] ] } },
{ "type": "Feature", "properties": { "LSOA21CD": "E01017264", "LSOA21NM": "Southampton 003A" }, "geometry": { "type": "Polygon", "coordinates": [ [ [ -1.37022550295733, 50.935783618319199 ], [ -1.37092526684278, 50.935720190719799 ], [ -1.37977455387769, 50.9366596768566 ], [ -1.38015343889063, 50.939233757936002 ], [ -1.38000086352207, 50.940092749960201 ], [ -1.37994430203953, 50.940964873373403 ], [ -1.37610001977122, 50.942170551619498 ], [ -1.37022550295733, 50.935783618319199 ] ] ] } },
{ "type": "Feature", "properties": { "LSOA21CD": "E01017265", "LSOA21NM": "Southampton 003B" }, "geometry": { "type": "Polygon", "coordinates": [ [ [ -1.35471039476587, 50.940966416411499 ], [ -1.35894360704977, 50.937996414502898 ], [ -1.36815500794834, 50.935932768473599 ], [ -1.37022550295733, 50.935783618319199 ], [ -1.37610001977122, 50.942170551619498 ], [ -1.37093530921929, 50.946058630696299 ], [ -1.3669194500604, 50.9468683681445 ], [ -1.35471039476587, 50.940966416411499 ] ] ] } },
{ "type": "Feature", "properties": { "LSOA21CD": "E01017266", "LSOA21NM": "Southampton 005A" }, "geometry": { "type": "Polygon", "coordinates": [ [ [ -1.38015343889063, 50.939233757936002 ], [ -1.38127175834129, 50.936518537288798 ], [ -1.38685177334255, 50.9385226633269 ], [ -1.3896744196666, 50.938539579217199 ], [ -1.38883646609023, 50.940095186842399 ], [ -1.38000086352207, 50.940092749960201 ], [ -1.38015343889063, 50.939233757936002 ] ] ] } },
{ "type": "Feature", "properties": { "LSOA21CD": "E01017267", "LSOA21NM": "Southampton 005B" }, "geometry": { "type": "Polygon", "coordinates": [ [ [ -1.37092526684278, 50.935720190719799 ], [ -1.37950539683922, 50.934285234051103 ], [ -1.38749525960258, 50.9362821961234 ], [ -1.38685177334255, 50.9385226633269 ], [ -1.38127175834129, 50.936518537288798 ], [ -1.38015343889063, 50.939233757936002 ], [ -1.37977455387769, 50.9366596768566 ], [ -1.37092526684278, 50.935720190719799 ] ] ] } },
{ "type": "Feature", "properties": { "LSOA21CD": "E01017270", "LSOA21NM": "Southampton 003C" }, "geometry": { "type": "Polygon", "coordinates": [ [ [ -1.38193262523215, 50.946037378546798 ], [ -1.38346921314985, 50.942231353356902 ], [ -1.38944504680122, 50.943876222874103 ], [ -1.39082611550871, 50.946519018376399 ], [ -1.38193262523215, 50.946037378546798 ] ] ] } },
{ "type": "Feature", "properties": { "LSOA21CD": "E01017271", "LSOA21NM": "Southampton 003D" }, "geometry": { "type": "Polygon", "coordinates": [ [ [ -1.37093530921929, 50.946058630696299 ], [ -1.37610001977122, 50.942170551619498 ], [ -1.37994430203953, 50.940964873373403 ], [ -1.38346921314985, 50.942231353356902 ], [ -1.38193262523215, 50.946037378546798 ], [ -1.37989172658936, 50.947518341937602 ], [ -1.37093530921929, 50.946058630696299 ] ] ] } },
{ "type": "Feature", "properties": { "LSOA21CD": "E01017272", "LSOA21NM": "Southampton 005E" }, "geometry": { "type": "Polygon", "coordinates": [ [ [ -1.38346921314985, 50.942231353356902 ], [ -1.37994430203953, 50.940964873373403 ], [ -1.38000086352207, 50.940092749960201 ], [ -1.38883646609023, 50.940095186842399 ], [ -1.38892077225642, 50.940150133099301 ], [ -1.39134502163935, 50.942424602809403 ], [ -1.38944504680122, 50.943876222874103 ], [ -1.38346921314985, 50.942231353356902 ] ] ] } },
{ "type": "Feature", "properties": { "LSOA21CD": "E01017273", "LSOA21NM": "Southampton 031A" }, "geometry": { "type": "Polygon", "coordinates": [ [ [ -1.3679860600645, 50.897163236576503 ], [ -1.37026855383073, 50.893406444612403 ], [ -1.37708275242744, 50.893325989786597 ], [ -1.3777906798932, 50.893443549698802 ], [ -1.37309694449148, 50.897682273892002 ], [ -1.3679860600645, 50.897163236576503 ] ] ] } },
{ "type": "Feature", "properties": { "LSOA21CD": "E01017274", "LSOA21NM": "Southampton 032A" }, "geometry": { "type": "Polygon", "coordinates": [ [ [ -1.35424899230355, 50.885898723787498 ], [ -1.35826434956119, 50.885158928782197 ], [ -1.36151514811993, 50.8859807419731 ], [ -1.36652569255296, 50.889801428260199 ], [ -1.35762669959763, 50.891214382583897 ], [ -1.35353994602409, 50.8908246898147 ], [ -1.35845384162411, 50.887746828795301 ], [ -1.35424899230355, 50.885898723787498 ] ] ] } },
{ "type": "Feature", "properties": { "LSOA21CD": "E01017275", "LSOA21NM": "Southampton 031B" }, "geometry": { "type": "Polygon", "coordinates": [ [ [ -1.3653522298261, 50.896831523693002 ], [ -1.35792737694213, 50.894273575575099 ], [ -1.35762669959763, 50.891214382583897 ], [ -1.36652569255296, 50.889801428260199 ], [ -1.36851466026807, 50.889161832123101 ], [ -1.37026855383073, 50.893406444612403 ], [ -1.3679860600645, 50.897163236576503 ], [ -1.36962981546325, 50.898286931738603 ], [ -1.3653522298261, 50.896831523693002 ] ] ] } },
{ "type": "Feature", "properties": { "LSOA21CD": "E01017276", "LSOA21NM": "Southampton 031C" }, "geometry": { "type": "Polygon", "coordinates": [ [ [ -1.36962981546325, 50.898286931738603 ], [ -1.3679860600645, 50.897163236576503 ], [ -1.37309694449148, 50.897682273892002 ], [ -1.3777906798932, 50.893443549698802 ], [ -1.38033703999676, 50.895275180421997 ], [ -1.38286114362989, 50.895001872970703 ], [ -1.38272715993989, 50.897847943113497 ], [ -1.38254250887923, 50.897926786125701 ], [ -1.37726212080202, 50.897968908845201 ], [ -1.36995435906373, 50.8983878259031 ], [ -1.36962981546325, 50.898286931738603 ] ] ] } },
{ "type": "Feature", "properties": { "LSOA21CD": "E01017277", "LSOA21NM": "Southampton 032B" }, "geometry": { "type": "Polygon", "coordinates": [ [ [ -1.35668013589955, 50.8937943657807 ], [ -1.34938522043059, 50.8885877202922 ], [ -1.35424899230355, 50.885898723787498 ], [ -1.35845384162411, 50.887746828795301 ], [ -1.35353994602409, 50.8908246898147 ], [ -1.35762669959763, 50.891214382583897 ], [ -1.35792737694213, 50.894273575575099 ], [ -1.35668013589955, 50.8937943657807 ] ] ] } },
{ "type": "Feature", "properties": { "LSOA21CD": "E01017279", "LSOA21NM": "Southampton 031E" }, "geometry": { "type": "Polygon", "coordinates": [ [ [ -1.36851466026807, 50.889161832123101 ], [ -1.37081812725138, 50.887885801256303 ], [ -1.3742455086449, 50.884778374731198 ], [ -1.38300066062368, 50.889319710809801 ], [ -1.38086413914105, 50.889017584547503 ], [ -1.37374736439362, 50.890004674518103 ], [ -1.37708275242744, 50.893325989786597 ], [ -1.37026855383073, 50.893406444612403 ], [ -1.36851466026807, 50.889161832123101 ] ] ] } },
{ "type": "Feature", "properties": { "LSOA21CD": "E01017280", "LSOA21NM": "Southampton 032C" }, "geometry": { "type": "Polygon", "coordinates": [ [ [ -1.36151514811993, 50.8859807419731 ], [ -1.36194984007901, 50.884027684225103 ], [ -1.37081812725138, 50.887885801256303 ], [ -1.36851466026807, 50.889161832123101 ], [ -1.36652569255296, 50.889801428260199 ], [ -1.36151514811993, 50.8859807419731 ] ] ] } },
{ "type": "Feature", "properties": { "LSOA21CD": "E01017281", "LSOA21NM": "Southampton 032D" }, "geometry": { "type": "Polygon", "coordinates": [ [ [ -1.36151514811993, 50.8859807419731 ], [ -1.35826434956119, 50.885158928782197 ], [ -1.36505082915397, 50.879997083342602 ], [ -1.36511119785051, 50.880038751101999 ], [ -1.3742455086449, 50.884778374731198 ], [ -1.37081812725138, 50.887885801256303 ], [ -1.36194984007901, 50.884027684225103 ], [ -1.36151514811993, 50.8859807419731 ] ] ] } },
{ "type": "Feature", "properties": { "LSOA21CD": "E01032738", "LSOA21NM": "Southampton 022F" }, "geometry": { "type": "Polygon", "coordinates": [ [ [ -1.4058397265437, 50.916554909250699 ], [ -1.40557559212797, 50.916517975531796 ], [ -1.40126130247821, 50.9159096363774 ], [ -1.39958725066395, 50.914628852030901 ], [ -1.40119382693371, 50.911519982860803 ], [ -1.40164157778218, 50.910601512134903 ], [ -1.40487321044096, 50.910499428376703 ], [ -1.40647724866216, 50.912915550774102 ], [ -1.4063257914813, 50.913992688279301 ], [ -1.40647947700979, 50.916637790251599 ], [ -1.4058397265437, 50.916554909250699 ] ] ] } },
{ "type": "Feature", "properties": { "LSOA21CD": "E01032745", "LSOA21NM": "Southampton 033C" }, "geometry": { "type": "Polygon", "coordinates": [ [ [ -1.39174034033736, 50.902011339417001 ], [ -1.39618516220333, 50.899210872357799 ], [ -1.39889146307462, 50.900453688115597 ], [ -1.3942204084521, 50.903922878157204 ], [ -1.39301365131225, 50.9021571974111 ], [ -1.39262465195012, 50.904666179536399 ], [ -1.3920639013637, 50.904714122506697 ], [ -1.39174034033736, 50.902011339417001 ] ] ] } },
{ "type": "Feature", "properties": { "LSOA21CD": "E01032746", "LSOA21NM": "Southampton 034C" }, "geometry": { "type": "Polygon", "coordinates": [ [ [ -1.40222617285215, 50.899421961658902 ], [ -1.3997886881909, 50.897483652660803 ], [ -1.40410984546334, 50.8973241590895 ], [ -1.40387889879318, 50.900078032941501 ], [ -1.40222617285215, 50.899421961658902 ] ] ] } },
{ "type": "Feature", "properties": { "LSOA21CD": "E01032748", "LSOA21NM": "Southampton 034D" }, "geometry": { "type": "Polygon", "coordinates": [ [ [ -1.40387889879318, 50.900078032941501 ], [ -1.40410984546334, 50.8973241590895 ], [ -1.3997886881909, 50.897483652660803 ], [ -1.39862263440588, 50.897658804138999 ], [ -1.39122035436909, 50.897426420754698 ], [ -1.39116068445726, 50.895081938304202 ], [ -1.39286115422394, 50.894887882227401 ], [ -1.39114886981781, 50.894617720656697 ], [ -1.39111473175496, 50.893276267375803 ], [ -1.38913176696896, 50.893182963813601 ], [ -1.39266401002129, 50.888403154427401 ], [ -1.39639054987442, 50.892560090021199 ], [ -1.39327084197526, 50.883055723896199 ], [ -1.39948910086346, 50.888332503171704 ], [ -1.39902240076432, 50.894548515685699 ], [ -1.4008217835614, 50.890285381367804 ], [ -1.40354168653182, 50.8956283718855 ], [ -1.40960297902693, 50.897897805990397 ], [ -1.4058248564301, 50.9004744807796 ], [ -1.40387889879318, 50.900078032941501 ] ] ] } },
{ "type": "Feature", "properties": { "LSOA21CD": "E01032750", "LSOA21NM": "Southampton 022G" }, "geometry": { "type": "Polygon", "coordinates": [ [ [ -1.39539450586773, 50.911949591398901 ], [ -1.39649006456839, 50.911754384792097 ], [ -1.40119382693371, 50.911519982860803 ], [ -1.39958725066395, 50.914628852030901 ], [ -1.39734396592908, 50.915234021913598 ], [ -1.39539450586773, 50.911949591398901 ] ] ] } },
{ "type": "Feature", "properties": { "LSOA21CD": "E01032751", "LSOA21NM": "Southampton 033D" }, "geometry": { "type": "Polygon", "coordinates": [ [ [ -1.39889146307462, 50.900453688115597 ], [ -1.39618516220333, 50.899210872357799 ], [ -1.39398527373656, 50.897841833661502 ], [ -1.39862263440588, 50.897658804138999 ], [ -1.3997886881909, 50.897483652660803 ], [ -1.40222617285215, 50.899421961658902 ], [ -1.40080248317021, 50.900521814562097 ], [ -1.39889146307462, 50.900453688115597 ] ] ] } },
{ "type": "Feature", "properties": { "LSOA21CD": "E01032753", "LSOA21NM": "Southampton 009F" }, "geometry": { "type": "Polygon", "coordinates": [ [ [ -1.39313011656234, 50.934317317542401 ], [ -1.38905090692558, 50.928559910657697 ], [ -1.39112889076052, 50.927070474665001 ], [ -1.39563443533956, 50.9251973766712 ], [ -1.39620660823407, 50.925305332458002 ], [ -1.39804148071598, 50.927295365291599 ], [ -1.39360088413273, 50.929639805039997 ], [ -1.39524517349998, 50.932289535848902 ], [ -1.40076270814364, 50.932974919202003 ], [ -1.40243984987329, 50.928606481467199 ], [ -1.40059388871639, 50.926539692673501 ], [ -1.40560833863116, 50.9267773848037 ], [ -1.40586361768649, 50.929639161781402 ], [ -1.40652969024469, 50.935843335370897 ], [ -1.40240681121511, 50.936979531309802 ], [ -1.39914198358597, 50.93781058962 ], [ -1.3964299200943, 50.937993333579001 ], [ -1.39313011656234, 50.934317317542401 ] ] ] } },
{ "type": "Feature", "properties": { "LSOA21CD": "E01032755", "LSOA21NM": "Southampton 033A" }, "geometry": { "type": "Polygon", "coordinates": [ [ [ -1.39262465195012, 50.904666179536399 ], [ -1.39301365131225, 50.9021571974111 ], [ -1.3942204084521, 50.903922878157204 ], [ -1.39821114979024, 50.908029863710098 ], [ -1.39470238710136, 50.907856795186397 ], [ -1.39216437378912, 50.908176334353897 ], [ -1.39262465195012, 50.904666179536399 ] ] ] } },
{ "type": "Feature", "properties": { "LSOA21CD": "E01035442", "LSOA21NM": "Southampton 005G" }, "geometry": { "type": "Polygon", "coordinates": [ [ [ -1.38685177334255, 50.9385226633269 ], [ -1.38749525960258, 50.9362821961234 ], [ -1.38498924963867, 50.932190099253702 ], [ -1.39313011656234, 50.934317317542401 ], [ -1.3964299200943, 50.937993333579001 ], [ -1.3896744196666, 50.938539579217199 ], [ -1.38685177334255, 50.9385226633269 ] ] ] } },
{ "type": "Feature", "properties": { "LSOA21CD": "E01035443", "LSOA21NM": "Southampton 005H" }, "geometry": { "type": "Polygon", "coordinates": [ [ [ -1.37950539683922, 50.934285234051103 ], [ -1.38055626538659, 50.9324258973596 ], [ -1.38082455327331, 50.932370293874797 ], [ -1.38260462496149, 50.932001350701498 ], [ -1.38498924963867, 50.932190099253702 ], [ -1.38749525960258, 50.9362821961234 ], [ -1.37950539683922, 50.934285234051103 ] ] ] } },
{ "type": "Feature", "properties": { "LSOA21CD": "E01035444", "LSOA21NM": "Southampton 023E" }, "geometry": { "type": "Polygon", "coordinates": [ [ [ -1.40118042639347, 50.9100966924454 ], [ -1.40453405920194, 50.906906639836599 ], [ -1.40080248317021, 50.900521814562097 ], [ -1.40222617285215, 50.899421961658902 ], [ -1.40387889879318, 50.900078032941501 ], [ -1.4058248564301, 50.9004744807796 ], [ -1.40622747405552, 50.904957866363297 ], [ -1.41292492808945, 50.906865187985701 ], [ -1.40836667671215, 50.908625750754801 ], [ -1.40487321044096, 50.910499428376703 ], [ -1.40164157778218, 50.910601512134903 ], [ -1.40118042639347, 50.9100966924454 ] ] ] } },
{ "type": "Feature", "properties": { "LSOA21CD": "E01035445", "LSOA21NM": "Southampton 023F" }, "geometry": { "type": "Polygon", "coordinates": [ [ [ -1.41133801821128, 50.911015273233197 ], [ -1.40836667671215, 50.908625750754801 ], [ -1.41292492808945, 50.906865187985701 ], [ -1.40622747405552, 50.904957866363297 ], [ -1.4058248564301, 50.9004744807796 ], [ -1.40960297902693, 50.897897805990397 ], [ -1.41672703874445, 50.900564515456203 ], [ -1.41810834763497, 50.900993198423997 ], [ -1.41534680051632, 50.909881208560499 ], [ -1.41388496957029, 50.912173130607997 ], [ -1.41133801821128, 50.911015273233197 ] ] ] } },
{ "type": "Feature", "properties": { "LSOA21CD": "E01035446", "LSOA21NM": "Southampton 031F" }, "geometry": { "type": "MultiPolygon", "coordinates": [ [ [ [ -1.38305962481069, 50.890785048394697 ], [ -1.38086413914105, 50.889017584547503 ], [ -1.38300066062368, 50.889319710809801 ], [ -1.38312553935544, 50.8893844750922 ], [ -1.38305962481069, 50.890785048394697 ] ] ], [ [ [ -1.38033703999676, 50.895275180421997 ], [ -1.38300750989262, 50.891892319632703 ], [ -1.38286114362989, 50.895001872970703 ], [ -1.38033703999676, 50.895275180421997 ] ] ] ] } },
{ "type": "Feature", "properties": { "LSOA21CD": "E01035447", "LSOA21NM": "Southampton 031G" }, "geometry": { "type": "Polygon", "coordinates": [ [ [ -1.3777906798932, 50.893443549698802 ], [ -1.37708275242744, 50.893325989786597 ], [ -1.37374736439362, 50.890004674518103 ], [ -1.38086413914105, 50.889017584547503 ], [ -1.38305962481069, 50.890785048394697 ], [ -1.38300750989262, 50.891892319632703 ], [ -1.38033703999676, 50.895275180421997 ], [ -1.3777906798932, 50.893443549698802 ] ] ] } },
{ "type": "Feature", "properties": { "LSOA21CD": "E01035448", "LSOA21NM": "Southampton 034A" }, "geometry": { "type": "Polygon", "coordinates": [ [ [ -1.39122035436909, 50.897426420754698 ], [ -1.39862263440588, 50.897658804138999 ], [ -1.39398527373656, 50.897841833661502 ], [ -1.39618516220333, 50.899210872357799 ], [ -1.39174034033736, 50.902011339417001 ], [ -1.39122035436909, 50.897426420754698 ] ] ] } },
{ "type": "Feature", "properties": { "LSOA21CD": "E01035449", "LSOA21NM": "Southampton 034B" }, "geometry": { "type": "MultiPolygon", "coordinates": [ [ [ [ -1.38839278651565, 50.894182813069499 ], [ -1.38913176696896, 50.893182963813601 ], [ -1.39111473175496, 50.893276267375803 ], [ -1.39114886981781, 50.894617720656697 ], [ -1.38839278651565, 50.894182813069499 ] ] ], [ [ [ -1.38799378075025, 50.895443270066899 ], [ -1.39116068445726, 50.895081938304202 ], [ -1.39122035436909, 50.897426420754698 ], [ -1.39174034033736, 50.902011339417001 ], [ -1.3920639013637, 50.904714122506697 ], [ -1.38827985285347, 50.9049819654552 ], [ -1.38799378075025, 50.895443270066899 ] ] ] ] } }
]
}
